id,charity_name,website,affiliation,post_code,city,address,email,phone_number,area_of_impact
1,1000/0 Aventura - Associação de Desporto e Natureza,,ONGA,7000-357,Évora,"Beco do Chiado, nº 28",cem.aventura@gmail.com,,
2,A Rocha - Associação Cristã de Estudo e Defesa do Ambiente,www.arocha.pt,ONGA,8501-903,Mexilhoeira Grande,Cruzinha - Endereço Postal: Apartado 41,portugal@arocha.org,,
3,Abrigo de Carinho - Associação Amigos do Animais,,ONGA,3070-802,PRAIA DE MIRA,"Rua da Igreja, nº 12",abrigo_de_carinho@hotmail.com,,
4,Aguiar Floresta - Associação Florestal e Ambiental de Vila Pouca de Aguiar,www.aguiarfloresta.org,ONGA,5450-056,VILA POUCA DE AGUIAR,"Central de Camionagem, loja 4",geral@aguiarfloresta.org,,
5,Alambi - Associação para o Estudo e Defesa do Ambiente do Concelho de Alenquer,www.alambi.org,ONGA,2584-909,Alenquer,"Avenida da Juventude, Casais Novos - Morada Postal:Apartado 63",francisco@alambi.org,,
6,Almargem - Associação de Defesa do Património Cultural e Ambiental do Algarve,www.almargem.org,ONGA,8100-545,LOULÉ,"Praceta Julião Quintinha, Bloco A, R/c esquerdo, Apartado 251",almargem@mail.telepac.pt,,
7,Alto Relevo - Clube de Montanhismo,,ONGA,4440-697,Valongo,"Rua Sousa Paupério, nº 108",geral@altorelevo.org,,
8,Amigos Picudos - Associação para a Preservação e Protecção dos Ouriços,www.amigospicudos.webnode.pt,ONGA,4470-310,MAIA,"Travessa D. João IV, nº 13",amigospicudos@gmail.com,,
9,Ania - Associação Ambiental,www.ania-ambiente.org,ONGA,4500-302,ESPINHO,"Rua 30, nº 955",geral@ania-ambiente.org,,
10,ANP - Associação Natureza Portugal,www.wwf.pt,ONGA,1600-312,LISBOA,"Rua Adriano Correia de Oliveira, nº 4-A",amorgado@natureza-portugal.org,,
11,APAMB - Associação Portuguesa de Inspecção e Prevenção Ambiental,www.apamb.pt,ONGA,2900-309,Setúbal,"Av. 5 de Outubro, nº 148 - 5ºH",geral@apamb.pt,,
12,APASADO - Associação de Protecção Ambiental do Sado,,ONGA,7580-131,ALCÁCER DO SAL,"Rua do Arroz, n.º 1",apasado@mail.telepac.pt,,
13,APEMETA - Associação Portuguesa de Empresas de Tecnologias Ambientais,www.apemeta.pt,ONGA,1700-097,LISBOA,"Campo Grande, nº 294 - 2º Dto/Esqº",tecnico@apemeta.pt,,
14,Arméria - Movimento Ambientalista de Peniche,https://www.facebook.com/AssociacaoArmeria,ONGA,2520-476,PENICHE,"Espaço Associativo - Rua Marquês de Pombal, nº 22 - 1º andar",associacaoarmeria@gmail.com,,
15,"Associação - Acção, Liberdade, Desenvolvimento, Educação, Investigação, Ambiente - Aldeia",www.aldeia.org,ONGA,5230-314,Vimioso,"Bairro de S. Sebastião, (Edifício Magistrados) - Endereço Postal: Apartado 29",aldeiamail@gmail.com,,
16,Associação Animais de Rua – Esterilização e Proteção de Animais em Risco,,ONGA,4000-465,PORTO,"Rua João das Regras, nº 284 – Sala 105",pedrojanson@gmail.com,,
17,Associação Bandeira Azul da Europa,www.abae.pt,ONGA,1350-355,LISBOA,"Rua General Gomes Araújo,Edifício Vasco da Gama, BLoco C, sala 1.26 e 1.27",abae@abae.pt,,
18,Associação Casa Comum da Humanidade,,ONGA,4430-211,VILA NOVA DE GAIA,"Instituto Geofísico da Universidade do Porto, Rua Rodrigues de Freitas",paulmaga@gmail.com,,
19,Associação da Defesa do Património Arouquense,www.adpa.pt,ONGA,4540-108,Arouca,"Largo de Santa Mafalda, Mosteiro de Arouca",direccao@adpa.pt,,
20,Associação de Defesa do Ambiente de Cacia e Esgueira (ADACE),www.adace.pt,ONGA,3800-114,AVEIRO,"Rua Bento Moura, nº 34, Esgueira",adace.ambiente@gmail.com,,
21,Associação de Defesa do Ambiente de Cacia e Esgueira (ADACE),www.adace.pt,ONGA,3800-114,AVEIRO,"Rua: Bento Moura, 34",adace.ambiente@gmail.com,,
22,Associação de Defesa do Ambiente e do Património da Região de Leiria,www.oikosambiente.com,ONGA,2401-901,Leiria,Av. Cidade de Maringá - Centro Associativo Municipal - Sala 9 - Endereço Postal: Apartado 2840,geral@oikosambiente.com,,
23,Associação de Defesa do Património Cultural e Natural do Concelho de Soure,http://www.adpcnsoure.org/,ONGA,3130-999,SOURE,"Edificio Finisterra - Espaço Multiusos 1111, Rua Neuville de Poitou, Apartado 34",adpcns@sapo.pt,,
24,Associação de Defesa do Património de Sintra,adps.pt,ONGA,2711-801,SINTRA,"Largo Nossa Senhora da Piedade, nº 6, 2635-640 Rio de Mouro - Morada Postal Apartado 1017 - Sintra Vila",adpsintra@gmail.com,,
25,Associação de Defesa do Paúl da Tornada - PATO,www.associacao-pato.org,ONGA,2500-315,CALDAS DA RAINHA,"Rua do Paul, nº 12 - Tornada",associacaopato@gmail.com,,
26,Associação de Estudo e Defesa do Património Histórico-Cultural de Castelo de Paiva,www.adep-paiva.blogspot.pt,ONGA,4550-228,Castelo de Paiva,Parque das Tílias - Frutuária,adeppaiva@gmail.com,,
27,Associação de Estudos do Alto Tejo,www.altotejo.org,ONGA,6030-201,VILA VELHA DE RÓDÃO,"Av. da Belavista (Antigos Correios), nº 160",altotejo@gmail.com,,
28,Associação de Produtores Florestais da Beira Interior,www.aflobei.pt,ONGA,6000-081,Castelo Branco,"Av. General Humberto Delgado, nº 57 - 1º andar",aflobei@aflobei.pt,,
29,Associação dos Amigos do Mindelo para a Defesa do Ambiente,,ONGA,4485-485,MINDELO,"Rua da Escola, nº 123 - Morada Postal: Rua Luís Vaz de Camões, nº 346 - 4485-544 Mindelo (Vila do Conde)",amigosdomindelo1992@gmail.com,,
30,Associação dos Amigos do Parque Ecológico do Funchal,www.bisbis.blogspot.com,ONGA,9050-208,Funchal,Jardins do Monte,amigosdoparque@gmail.com,,
31,Associação dos Escoteiros de Portugal,www..escoteiros.pt,ONGA,1300-264,LISBOA,"Travessa das Galeotas, nº 1",geral@escoteiros.pt,,
32,Associação Florestal do Lima,www.aflima.pt,ONGA,4990-264,PONTE DE LIMA,"Rua Poço de Cabaços, Nº 61 - Feitosa",afloreslima@gmail.com,,
33,Associação Florestal do Vale do Douro Norte,www.aflodounorte.pt,ONGA,5090-077,Murça,Casa Florestal de Mascanho - Carvas,geral@aflodounorte.pt,,
34,Associação Florestal do Vale do Douro Norte,www.aflodounorte.pt,ONGA,5430-452,VALPAÇOS,Centro de Gestão de Valpaços - Rua da Horta da Fonte n.º 16 A,geral@aflodounorte.pt,,
35,Associação Florestal do Vale do Douro Norte,www.aflodounorte.pt,ONGA,5060-320,SABROSA,Rua das Eiras (antiga Escola Primária),geral@aflodounorte.pt,,
36,Associação Grupo de Socorro Animal de Portugal,,ONGA,1600-545,LISBOA,"Estrada do Paço do Lumiar, Lote R4 - Loja A",sosanimal@sosanimal.com,,
37,Associação Onde Há Gato Não Há Rato,http://ondehagatonaoharato.wixsite.com/gato,ONGA,2800-137,ALMADA,"Rua Capitão Leitão, nº 111 R/C - Dto",geral.ondehagato@gmail.com,,
38,Associação para o Estudo e Defesa do Património Natural e Cultural do Concelho de Mértola,http://www.adpm.pt,ONGA,7750-328,MÉRTOLA,Largo Vasco da Gama,geral@adpm.pt,,
39,Associação para o Estudo e Protecção do Gado Asinino,www.aepga.pt,ONGA,5225-011,ATENOR,Largo da Igreja,burranco@gmail.com,,
40,Associação para um Mundo Humanitário,,ONGA,7630-392,RELÍQUIAS,Monte do Cerro,amh@tamera.org,,
41,Associação Portuguesa de Educação Ambiental,www.aspea.org,ONGA,1500-001,LISBOA,Centro Associativo do Calhau - Parque Florestal de Monsanto - Endereço Postal: Apartado 4021,aspea@aspea.org,,
42,Associação Portuguesa de Educação Ambiental,www.aspea.org,ONGA,3810-156,AVEIRO,"Praça da República, Edifício Fernando Távora",aveiro@aspea.org,,
43,Associação Portuguesa dos Amigos dos Castelos,www.amigosdoscastelos.org.pt,ONGA,1100-077,LISBOA,"Palácio Flor da Murta, Terrugem, Caxias. -- Endereço Postal: Rua Barros Queirós, nº 20 - 2º",geral@amigosdoscastelos.org.pt,,
44,Associação Portuguesa dos Recursos Hídricos,http://www.aprh.pt,ONGA,1700-066,LISBOA,"a/c LNEC, Av. do Brasil, nº 101",aprh@aprh.pt,,
45,Associação Vamos Salvar o Jamor,www.salvarjamor.net,ONGA,2780-158,OEIRAS,"Avenida da República, 120 A",salvarjamor@gmail.com,,
46,Associação Vita Nativa - Conservação do Ambiente,,ONGA,8700-225,OLHÃO,"Sítio Pinheiros de Marim, nº 247-A",thysvalkenburg@gmail.com,,
47,BUSINESS as NATURE – Associação para a Promoção da Produção e Consumo Sustentável e Desenvolvimento da Economia Circular,,ONGA,6290-541,GOUVEIA,"Av. 1.º de Maio, Edifício Teatro-Cine",geral@businessasnature.org,,
48,Campo Aberto - Associação de Defesa do Ambiente,www.campoaberto.pt,ONGA,4018-001,Porto,"Rua Camilo Castelo Branco, nº 52/70, Águas Santas, Maia - Endereço Postal: Apartado 5052",contacto@campoaberto.pt,,
49,Cantinho do Tareco - Associação de Protecção Animal,www.cantinhodotareco.org,ONGA,4470-328,MAIA,"Rua das Mais, Torre nº 1 Traseiras Bairro do Sobreiro",direcao@cantinhodotareco.org,,
50,Cantinho dos Animais Abandonados de Viseu,,ONGA,3515-232,Póvoa de Abraveses,"Rua da Escola Preparatória, nº 164",anavaz80@hotmail.com,,
51,Centro de Arqueologia de Almada,www.caa.org.pt,ONGA,2801-601,Almada,Travessa Luis Teotónio Pereira - Endereço Postal: Apartado 603 - Pragal,c.arqueo.alm@gmail.com,,
52,"Clube Bio-Ecológico ""Amigos da Vida Selvagem""",www.amigosvidaselvagem.no.sapo.pt,ONGA,2380-064,Alcanena,Centro Cívico do Movimento Associativo - Morada Postal: Apartado 206,amigosvidaselvagem@sapo.pt,,
53,Clube de Actividades Ar Livre,www.clubearlivre.org,ONGA,1500-045,LISBOA,Centro Associativo do Calhau - Sítio do Calhau - Parque Florestal de Monsanto,caal@mail.telepac.pt,,
54,Clube de Montanhismo da Arrábida,http://www.cmarrabida.org,ONGA,2901-901,Setúbal,"Alameda do Pinheiro, nº 6 C/v TRZ - Endereço postal: Apartado 238",cma@cmarrabida.org,,
55,Confederação Portuguesa das Associações de Defesa do Ambiente,www.cpada.pt,ONGA,1150-075,LISBOA,"Rua Bernardo Lima, nº 35 - 2º/B",cpada@cpada.pt,,
56,Corpo Nacional de Escutas,www.escutismo.pt,ONGA,1200-152,LISBOA,"Rua D. Luís I, 34 - Endereço: Serviços Centrais",geral@escutismo.pt,,
57,Dão-Flora - Associação de Produtores Florestais,www.daoflora.org,ONGA,3550-137,PENALVA DO CASTELO,"Rua Alexandre Herculano, Mercado Municipal - Sala 12",daoflora@gmail.com,,
58,Euronatura - Centro para o Direito Ambiental e Desenvolvimento Sustentado,www.euronatura.pt,ONGA,1250-091,LISBOA,"LEAP Center | Espaço Amoreiras - Rua D. João V, nº 24 - 1.03",ignacio.pereda@euronatura.pt,,
59,FAPAS - Associação Portuguesa para a Conservação da Biodiversidade,http://www.fapas.pt,ONGA,4415-154,PEDROSO,"Rua das Alheiras, nº 960 - Quinta de Chão de Carvalhos (V. N. Gaia)",fapas@fapas.pt; nuno.oliveira@fapas.pt,,
60,Federação Portuguesa de Cicloturismo e Utilizadores de Bicicleta,www.fpcub.pt,ONGA,1150-075,LISBOA,"Rua Bernardo Lima 35, 2º B - Endereço postal: Apartado 4101",fpcub@fpcub.pt,,
61,Flopen - Associação de Produtores e Proprietários Florestais do Concelho de Penela,www.flopen.org,ONGA,3230-070,ESPINHAL,"Rua do Comércio, nº 11",flopen@flopen.org,,
62,FORESTIS - Associação Florestal de Portugal,www.forestis.pt,ONGA,4000-454,PORTO,"Rua de Santa Catarina, nº 753",geral@forestis.pt,,
63,GEOTA - Grupo de Estudos de Ordenamento do Território e Ambiente,www.geota.pt,ONGA,1200-727,LISBOA,"Travessa do Moinho de Vento, nº 17 - Cv / Dta.",geota@geota.pt,,
64,GPS - Grupo Protecção Sicó,www.gps-sico.org,ONGA,3100-491,POMBAL,"Centro Coordenador de Transportes-Lg da Biblioteca - Endereço Postal: Rua António Varela Pinto, nº 21/ Esq., Sala A",gps.sico@gmail.com,,
65,Grupo Ecológico de Cascais,,ONGA,2750-686,Cascais,"Rua do Estorninho, Loja L, Quinta da Bicuda",grupoecologicocascais@gmail.com,,
66,GRUPO FLAMINGO - Associação Defesa do Ambiente,www.grupoflamingo.org,ONGA,2855-211,Corroios,"Alameda 25 de Abril, n.º 11 - Miratejo",geral@grupoflamingo.org,,
67,Grupo Lobo - Associação para a Conservação do Lobo e do seu Ecossistema,lobo.fc.ul.pt,ONGA,1749-016,LISBOA,"Depart. Biologia Animal, FCUL, Campo Grande, Bloco C2",globo@fc.ul.pt,,
68,Instituto Zoofilo Quinta Carbone,,ONGA,2745-165,QUELUZ,"Rua de Santo António - Quinta da Lindas, Tercena",lpda.sec@gmail.com,,
69,Liga dos Amigos de Setúbal e Azeitão,http://www.lasa.pt,ONGA,2900-276,SETÚBAL,"Praça de Bocage, nº 48 - 2º Esqº Endereço Postal: Apartado 292 - 2901 - 901 Setúbal",lasasetubal@gmail.com,,
70,Liga para a Protecção da Natureza,http://www.lpn.pt,ONGA,1500-124,LISBOA,"Estrada do Calhariz de Benfica, nº 187",geral@lpn.pt,,
71,Liga para a Protecção da Natureza,http://www.lpn.pt,ONGA,7780-909,Castro Verde,Herdade do Vale Gonçalinho - Apartado 84,lpn.cea-castroverde@lpn.pt,,
72,Liga Portuguesa dos Direitos do Animal,www.lpda.pt,ONGA,2775-737,Carcavelos,"Rua de Santa Clara, nº 111 D/E (Bairro S. Miguel das Encostas)",lpda.sec@gmail.com,,
73,Linha de Defesa - Associação de Defesa do Ambiente,,ONGA,2690-435,SANTA IRIA DE AZÓIA,"Rua Bartolomeu Dias, 7 - A",adaloures@gmail.com,,
74,MARCA - Associação de Desenvolvimento Local,,ONGA,7050-123,Montemor-O-Novo,"Largo General Humberto Delgado, nº 7, 1º - Apartado 4188",marca@marca-adl.pt,,
75,Montis - Associação para a Gestão e Conservação da Natureza,montisacn.blogspot.pt,ONGA,3670-270,VOUZELA,"Urbanização Sampaio, Lote 21",montisacn@gmail.com,,
76,Movimento para a Defesa do Rio Lima,,ONGA,4990-332,PONTE DE LIMA,"Rua Cancinhola, 75",molima.pontedelima@gmail.com,,
77,Núcleo Cicloturista de Sesimbra - Associação de Defesa do Ambiente,,ONGA,2970-000,Sesimbra,Casais de Santana - Santana,ricardo.caetano@opensoft.pt,,
78,Núcleo de Defesa do Meio Ambiente de Lordelo do Ouro - Grupo Ecológico,,ONGA,4150-610,PORTO,"Rua de Penoucos, nº 403",ndmalo@hotmail.com,,
79,Onda Verde - Associação Juvenil de Ambiente e Aventura,ondaverde.pt,ONGA,4430-835,AVINTES,"Rua da Fraternidade, nº 70",ondaverde.ajaa@gmail.com,,
80,ONGaia - Associação de Defesa do Ambiente,,ONGA,4405-726,Madalena,"Rua António Francisco de Sousa, nº 491 - Madalena",ongaia.2018@gmail.com,,
81,ONGA-TEJO - Organização Não-Governamental do Ambiente,,ONGA,2150-125,GOLEGÃ,"Largo da Imaculada Conceição, nº 1",ongatejo@ongatejo.pt,,
82,Palombar - Associação de Conservação da Natureza e do Património Rural,www.palombar.pt,ONGA,5230-090,Uva,Antiga Escola Primária de Uva,palombar@palombar.pt,,
83,"PCI - Paramédicos de Catástrofe Internacional, ONGD",www.paramedico-internacional.org,ONGA,3041-901,,Rua Antonio Augusto Goncalves,ong.paramedicos.chefedegabinete@gmail.com,,
84,"PCI - Paramédicos de Catástrofe Internacional, ONGD",www.paramedico-internacional.org,ONGA,6370-341,MACEIRA FAG,Rua Jogo da bola,ong.paramedicos.presidente@gmail.com,,
85,"PCI - Paramédicos de Catástrofe Internacional, ONGD",www.paramedico-internacional.org,ONGA,1675-151,1675-151,Rua pedro alvares cabral 1675-151-Lisboa,ong.paramedicos.presidente@gmail.com,,
86,Plantar uma Árvore - Associação,www.plantarumaarvore.org,ONGA,1400-248,LISBOA,"Rua Martins Barata, nº4 - 5º/Esqº",miguel.teles@plantarumaarvore.org,,
87,Portucalea - Associação Florestal do Grande Porto,www.portucalea.pt,ONGA,4510-638,FÂNZERES,"Rua da Portelinha, nº 289",geral@portucalea.pt,,
88,QUERCUS - Associação Nacional de Conservação da Natureza,www.quercus.pt,ONGA,1500-045,LISBOA,"Centro Associativo do Calhau - Bairro do Calhau, Bairro Florestal de Monsanto",quercus@quercus.pt,,
89,Real 21 - Associação de Defesa do Rio Real,www.real21.pt,ONGA,2580-110,ALDEIA GAVINHA,Quinta do Tojal. Tojal,josematossilva@gmail.com,,
90,Rio Neiva - Associação de Defesa do Ambiente,www.rioneiva.com,ONGA,4740-013,ANTAS EPS,"Rua Foz do Neiva, nº 190",associacaorioneiva@gmail.com,,
91,Salta Fronteiras Associação,www.saltafronteiras.org,ONGA,4611-909,Felgueiras,"R. Basílio Vasconcelos, Lote 71, n.º 209. 4.º / Esq.º - Endereço Postal: Apartado 110 - EC Felgueiras",saltafronteiras@gmail.com,,
92,Senhores Bichinhos - Associação de Proteção aos Animais,,ONGA,4400-569,VILA NOVA DE GAIA,"Rua do Rodelo, nº 164",senhoresbichinhos@hotmail.com,,
93,Serras e Povoados - Associação,,ONGA,6200-865,TORTOSENDO (Covilhã),"Parkurbis - Parque de Ciência e Tecnologia da Covilhã, Sala 10",associacaoserrasepovoados@gmail.com,,
94,Sociedade Portuguesa de Botânica,,ONGA,2615-018,ALVERCA DO RIBATEJO,"Travessa do Jardim, nº 3 - A-dos-Potes",spbotanica@gmail.com,,
95,Sociedade Portuguesa de Espeleologia,http://www.spe.pt,ONGA,1070-165,LISBOA,"Bairro da Liberdade, Rua C, Lote 11, Loja 16",spe@spe.pt,,
96,Sociedade Portuguesa para o Estudo das Aves,www.spea.pt,ONGA,1070-062,LISBOA,"Av. Columbano Bordalo Pinheiro, n.º 87 - 3.º",spea@spea.pt,,
97,TAGIS - Centro de Conservação das Borboletas de Portugal,www.tagis.pt,ONGA,7480-152,AVIS,"Rua das Portas de Évora, nº 3",infotagis@gmail.com,,
98,Terras Dentro - Associação para o Desenvolvimento Integrado,www.terrasdentro.pt,ONGA,7090-049,ALCÁÇOVAS,Rua Rossio do Pinheiro,terrasdentro@terrasdentro.pt; nazare.toureiro@terrasdentro.pt,,
99,Transumância e Natureza - Associação,www.atnatureza.org,ONGA,6440-111,FIGUEIRA CASTELO RODRIGO,"Avenida 25 de Abril, nº 92",geral@atnatureza.org,,
100,Urbe - Núcleos Urbanos de Pesquisa e Intervenção,www.urbe.com.pt,ONGA,2560-692,TORRES VEDRAS,"Rua Raimundo Porta, Bloco A, Loja 6, 2º / Esqº",secretariado.urbe@sapo.pt,,
101,URZE - Associação Florestal da Encosta da Serra da Estrela,www.urze.org,ONGA,6290-361,Gouveia,"Rua Cidade da Guarda, Edifício da Central de Camionagem, R/c",urze.estrela@gmail.com,,
102,Zero - Associação Sistema Terrestre Sustentável,www.zero.ong,ONGA,1050-038,LISBOA,"Av. de Berna, nº 31 - 2º / Dº (Sala 2)",zero@zero.ong,,
103,"4Change - Cooperativa Cultural e de Solidariedade Social, CRL",https://www.4change.org/pt/,ONGD,1170-086,Lisboa,"Rua Cavaleiro de Oliveira, n.º 55 - 3.º F", info@4change.org ,962566888 / 968457022,
104,A Mutualidade de Santa Maria - Associação Mutualista,,ONGD,3885-518,Esmoriz,"Av. 29 de março, n.º 652 - Apartado 50", mutualidade.s.m@mail.telepac.pt,256 759 040,
105,A3S - Associação para o Empreendedorismo Social e a Sustentabilidade do Terceiro Sector,,ONGD,4100-512,Porto,"Rua da Vilarinha n.º 876, 1.º Dto", associacao3s@gmail.com,91 662 77 33,
106,ABLA - Associação de BenefiCência Luso-Alemã,http://www.abla.org/,ONGD,2775-584,Portugal,"Pcta. Infante D. Henrique,80,Quinta do Junqueiro", geral@abla.org,21 454 9000,
107,Acácia - Associação de Cooperação Internacional com África,http://acacia-associacao.blogspot.pt/,ONGD,2780-208,Oeiras,"Avenida de Brasília, nº 9, 1º Esq.", acacia.associacao@gmail.com,936 631 983,
108,ACAPO - Associação dos Cegos e Amblíopes de Portugal,http://www.acapo.pt/,ONGD,1200-651,Lisboa,"Av. D. Carlos I, 126 - 9.º", dn@acapo.pt ,213 244 500,
109,ACEP - Associação para a Cooperação entre os Povos,http://www.acep.pt/,ONGD,1050-202,Lisboa,"R. Santos Dumont, n.º 57 - 4.º Esq.", info@acep.pt,217 950 175,
110,ACGB - Associação de Cooperação com a Guiné-Bissau,http://associacaocguinebissau.blogspot.pt/,ONGD,4900-522        ,Viana do Castelo        ,"Casa de João Velho, Largo do Instituto Histórico do Alto Minho", acgb.porto@gmail.com,919 064 488,
111,ACTUAR - Associação para a Cooperação e o Desenvolvimento,http://www.actuar-acd.org/,ONGD,3040-316,Coimbra,Quinta do Bispo - Bencanta, geral@actuar-acd.org,961 585 638,
112,ADDHU - Associação de Defesa dos Direitos Humanos ,http://www.addhu.org/,ONGD,2765-260,Estoril,"Av. Nuno Alvares Pereira, n.º 33", info@addhu.org,21 386 93 31,
113,ADIRN - Associação para o Desenvolvimento Integrado do Ribatejo Norte,http://www.adirn.pt/,ONGD,2300-431,Tomar,"Alameda 1 de março, C. C. Templários - 3.º andar", adirn@adirn.pt ,249 31 00 40,
114,Associação para o Desenvolvimento MEERU | Abrir Caminho,https://www.meeru.org/,ONGD,4415-346,Lisboa,"Rua Senhora da Hora, nº 237", abrircaminho@camoes.org ,916071863,
115,ADPM – Associação para o Estudo e Defesa do Património Natural e Cultural do Concelho de Mértola,http://www.adpm.pt/adpm.html,ONGD,7750-328,Mértola,Largo Vasco da Gama, geral@adpm.pt,286 610 000,
116,"ADRA Portugal - Associação Adventista para o Desenvolvimento, Recursos e Assistência",http://www.adra.org/,ONGD,1000-171,LISBOA,"Rua Ilha Terceira, n.º 3, 3º andar", info@adra.org.pt,213 539 316,
117,Associação From Kibera with Love,,ONGD,2830-330,Barreiro,"Rua da Bandeira, nº26 8º dto.", marta@fromkiberawithlove.com,,
118,AGIR XXI – Associação para a Inclusão Social,http://www.agirxxi.pt/,ONGD,1170-289,Lisboa,"Rua Palmira, n.º 62 – 2.º Dto.", info@agirxxi.pt,218 380 003,
119,AHEAD – Associação Humanitária para a Educação e Apoio ao Desenvolvimento ,http://www.ahead.org.pt/,ONGD,1061–001,Lisboa,Apartado 12046 – EC Picoas, ahead@ahead.org.pt,91 264 21 46 ,
120,AIDGLOBAL - Acção e Integração para o Desenvolvimento Global,http://www.aidglobal.org/,ONGD,1998-011,Lisboa,"Rua de Moscavide,  71", geral@aidglobal.org ,218 946 028,
121,AJAP - Associação de Jovens Agricultores de Portugal,http://www.ajap.pt/,ONGD,1269-128,Lisboa,"Rua D. Pedro V, 108-2º", ajap@ajap.pt,213 244 970,
122,Ajuda Amiga - Associação de Solidariedade e Apoio ao Desenvolvimento ,http://ajudaamiga.com.sapo.pt/,ONGD,2770-007,Paço de Arcos,"Rua do Alecrim, 8, 1.º Dto.", ajudaamiga2008@yahoo.com ,935 247 306,
123,AD GENTES – Associação Leigos Missionários da Consolata,,ONGD,2735-206,Cacém,Avenida Cidade de Lisboa, geral@adgentes.org.pt ,,
124,ALER - Associação Lusófona de Energias Renováveis,http://www.aler-renovaveis.org/,ONGD,1250-193,Lisboa,"Rua Rodrigo da Fonseca, n.º 54, 2.º andar", geral@aler-renovaveis.org,211379288,
125,AMU - Cooperação e Solidariedade Lusófona por um Mundo Unido,http://www.amu.org.pt/,ONGD,2580-059,Abrigada,Cidadela Arco Iris Vale Menriço, geral@amu.org.pt ,217723114,
126,AMURT Portugal – Associação de Apoio Social e Humanitário,http://www.amurt.pt/,ONGD,2750-506,Cascais,"Avenida do Ultramar, n.º 15, 1.º F", geral@amurt.pt  ,210197707,
127,AO NORTE - Associação de Produção e Animação Audiovisual,http://www.ao-norte.com/,ONGD,4900-489,Viana do Castelo,"Praça D. Maria II, 113, R/C", ao-norte@nortenet.pt,258 821 619,
128,APDES - Agência Piaget para o Desenvolvimento,http://www.apdes.pt/,ONGD,4411-801,Arcozelo   - Vila Nova de Gaia,"Alameda Jean Piaget, 100 - Apartado 1523", info@apdes.pt,227 531 106/107,
129,APOIAR - Associação Portuguesa de Apoio a África ,http://www.apoiar.org/,ONGD,2080-039,Almeirim,"Avenida General Guerra, nº 23", info@apoiar.org; ,243 593 152,
130,ASAU - Associação de Apoio à Saúde,,ONGD,1600-131,Lisboa,"Rua Julieta Ferrão, 12 - 4º Porta 401", jfmartins@pedipedia.org,966004484,
131,ASCULP - Associação Cultura e Cidadania de Língua Portuguesa,https://festin-festival.com/o-festival/,ONGD,1200-385,Lisboa,"Rua da Rosa, 277", direcao@festin-festival.com ,213 460 190,
132,ASP - Associação Saúde em Português - Associação de Profissionais de Cuidados de Saúde Primários dos Países de Língua Portuguesa ,http://www.saudeportugues.pt/,ONGD,3030-183,Coimbra,"Av. Elísio de Moura, 417 - 1.º Esq. - Apartado 4047", saudeportugues@gmail.com,239 702 723,
133,ASPEA - Associação Portuguesa de Educação Ambiental,http://www.aspea.com/,ONGD,1500-001,Lisboa,"Centro Associativo do Calhau,Parque Florestal de Monsanto,Apartado 4021 ", aspea@aspea.org,21 775 48 27,
134,Associação A Fraternidade que nos Une,http://www.fraterune.org/,ONGD,9700-552,São Mateus da Calheta,"Angra do Heroísmo, Entre Ladeiras, 19A", fraterune@fraterune.org; fraterune2019@gmail.com ,966464429 e 963364818,
135,Associação África Solidariedade,http://africasolidariedade.com/index.html,ONGD,4050-049,Porto,"Rua Aníbal Cunha, 193", info@africasolidariedade.com,226066075,
136,Associação AGB - Ajude a Guiné-Bissau,,ONGD,4450-687,Matosinhos,"R. Heróis de África, n.º 442", jmrodrigues47@gmail.com ,,
137,Associação Amigos de Inharrime - Portugal,http://www.amigosinharrime.pt/,ONGD,1900-089,Lisboa,Rua Barão Sabrosa n.º 213, amigosinharrime@gmail.com,,
138,Associação Coração sem Fronteiras,http://coracaosemfronteiras.weebly.com/,ONGD,1950-009,Lisboa,"Rua do Açucar, n.º 76, Armazém 34", geral@coracaosemfronteiras.org ,,
139,Associação Corações com Coroa,http://www.coracoescomcoroa.org/,ONGD,1400-340,Lisboa,Rua Soldados da Índia n.º 50, coracoescomcoroa@gmail.com,935038798/99,
140,Associação Cultural Coração em Malaca,http://www.dikorsang.org/,ONGD,2560-275,Torres Vedras,Av. Tenente Valadim n.º 17 - 1.º Sala 2, dikorsang@dikorsang.org ,261 314 222,
141,Associação Cultural Moinho da Juventude,http://www.moinhodajuventude.pt/,ONGD,2610-202,Buraca,"Travessa do Outeiro, nº 1, Alto da Cova da Moura", acmj@moinhodajuventude.pt ,214 971 070,
142,Associação de Apoio a Obras Sociais das Irmãs Franciscanas Missionárias de Nossa Senhora,http://www.apoiosocial-fmns.com/website/,ONGD,4200-155,Porto,"Rua D. Carlos Ramos, n.º 50",,252852647,
143,Associação EDUCÁFRICA,http://www.educafrica.pt/,ONGD,4475-358,Milheirós – Maia,"Rua Arquitecto Mário Bonito, 107", direcao@educafrica.pt ,965168334,
144,Associação Elos de Fraternidade,http://www.sfrjs.org/Site/index.php?id=3&lng=1,ONGD,5300-011,Bragança,"Rua Abílio Beça, n.º 60", servas@sfrjs.org ,273300200 e 273329130,
145,Associação FENIKS - Iluminar a Dignidade Humana e os Direitos Humanos,http://feniks.pt/,ONGD,3070-399,Mira,"Rua António José de Almeida, n.º 98 - 3 Esq.", info@feniks.pt ,910331658 / 919297183,
146,Associação Filhos do Coração,http://www.addaptcreative.com/fdc/,ONGD,1350-177,Lisboa,"Rua Almeida Brandão, 3, 1º Dto", apborges@tvi.pt,,
147,Associação GirlMove Portugal,http://www.girlmove.org/,ONGD,1500-369,Lisboa,"Rua Jorge Barradas, n.º 35 – C", alexandra.machado@girlmove.org,213 839 060,
148,Associação Horizontes,https://horizontesong.wixsite.com/ongd,ONGD,3700-025,São João da Madeira,"Rua Afonso Albuquerque, n.º 458", horizontes.ong@gmail.com,969 510 339,
149,Associação Karingana Wa Karingana,http://karinganawakaringana.org/,ONGD,1600-598,Lisboa,"Rua Prof. Francisco Gentil, n.º 33", associacao@karinganawakaringana.org,210 514 350,
150,Associação Magnalingue,https://www.facebook.com/MagnalingueONGD/,ONGD,6150-737,Sobreira Formosa,"Rua Infante Sagres, n.º 17", magnalingue@gmail.com,217 159 542,
151,Associação Mãos por Cazombo,http://www.maosporcazombo.org/,ONGD,4000-490,Porto,"Rua Santos Pousada, n.º 1245", maosporcazombo@gmail.com,96 543 08 32 / 96 900 84 60,
152,Associação Marquês de Valle Flôr,http://www.vflor.org/,ONGD,1100-183,Lisboa,"Rua do Crucifixo, n.º 40 – 1.º andar", info@vflor.org,21 325 63 00,
153,Associação Médicos do Mundo,http://www.medicosdomundo.pt/,ONGD,1300-125,Lisboa,Av. de Ceuta (Sul) Lote 4 – Loja 1, mdmp-lisboa@medicosdomundo.pt,927 379 836,
154,Associação Missão Dimix,http://www.missaodimix.org/,ONGD,1950-242,Lisboa,"Rua Pereira Henriques, n.º 3", ursotigre@missaodimix.org,917529716 / 918532091,
155,Associação Nova Dimensão ,http://www.and-pt.org/,ONGD,2625-063,Póvoa de Santa Iria,"Rua José Maria Duarte, Lote 15, R/C Dto.", geral@and-pt.org,960004472,
156,Associação Olhar Pelo Mundo,,ONGD,1150-111,Lisboa,"Rua Conselheiro Arantes Pedroso, n.º 25 – 3.º Dto",Email: olharpelomundo@gmail.com,91 442 50 08,
157,Associação P&D Factor,https://popdesenvolvimento.org/,ONGD,1200-480,Lisboa,"Avenida 24 de Julho, n 3 – 2ºEsq, sala 2 .",Emai: info@popdesenvolvimento.org,,
158,"Associação Padre Amadeu Pinto, SJ",http://www.cjcpap.org/,ONGD,2825-011,Alcaniça,Rua do Lago n1 RC ABCD, direcao.cjpamadeupinto@gmail.com ,919 153 824,
159,Associação Padrinhos d'África,http://www.padrinhosdeafrica.org/,ONGD,4635-664,Vila Boa de Quires,"Rua de Agrela, 423 Marco de Canavezes", padrinhos.africa@gmail.com,966479845,
160,Associação Padrinhos de Portugal,http://padrinhosdeportugal.blogs.sapo.pt/,ONGD,1350-179,Lisboa,"Avenida Infante Santo, 58, 4º C", padrinhosdeportugal@gmail.com,918717892,
161,Associação PerCurso Waldorf,http://associação-percurso-waldorf.pt/,ONGD,1170-113,Lisboa,"Rua Damasceno Monteiro, n.º 90 - 4.º esq.", curso.waldorf@gmail.com ,960223671,
162,Associação Plataforma para os Estudantes Sírios (APGES),http://www.globalplataformforsyrianstudents.org/,ONGD,1070-050,Lisboa,"Rua Castilho, n.º 165", daliasendra@casadoregalo.pt ,213 931 440,
163,Associação Portuguesa Amigos de Raoul Follereau,https://aparf.pt/,ONGD,1800-107,Lisboa,"Rua Cidade Nova Lisboa, nº7",,,
164,Associação Portuguesa de Solidariedade Mãos Unidas Padre Damião,http://www.maos-unidas.pt/,ONGD,1150-041,Lisboa,Rua Antero de Quental n.º 17 -17C, geral@maos-unidas.pt,21 351 57 20,
165,Associação Renovar a Mouraria,http://www.renovaramouraria.pt/,ONGD,1100-034,Lisboa,"Beco do Rosendo, n.º 8", geral@renovaramouraria.pt,21 888 52 03,
166,Associação Rising Child,https://www.risingchild.pt/,ONGD,2580-388,Alenquer,"Av. Jaime Augusto Ferreira, lote 2 4ºdto",,,
167,Associação S.O.G.A. - Servir Outra Gente com Amor,http://soga.pt/,ONGD,3070-125,Coimbra,"Rua da Estrada Nova, n.º 383", comunicacao@soga.pt ,965411278,
168,Associação SAPANA,http://www.sapana.org/,ONGD,1170-113,Lisboa,Rua Damasceno Monteiro 128A,hello@sapana.org,912 137 802,
169,"Associação SocialisRep – Solidariedade Reparadora, Associação de Acção Social",,ONGD,4000-308,Porto,"Rua João Pedro Ribeiro, 785      ",socialisrep@gmail.com,,
170,Associação SPIN para o Intercâmbio Formação e Cooperação entre os Povos,http://www.a-spin.pt/,ONGD,1600-746,Lisboa,"Rua Rio Tejo, n.º 7 - Antiga Escola Rio Tejo", direcao@a-spin.pt,91 451 92 64,
171,Associação Stella,,ONGD,4150-718,Porto,"Rua Dr. Sousa Rosa, n.º 232", daniel.bras.marques-6843p@adv.oa.pt ,,
172,Associação The Big Hand,http://www.thebighand.org/,ONGD,2900-284,Setúbal,"Rua de Brancanes, nº 17, R/C Esq.", geral@thebighand.org,21 753 02 20,
173,Associação Union Fraternelle Portugal - A.U.F.P.,https://pt-br.facebook.com/AUFPortugal/,ONGD,3780-455,Anadia,Curiatecnoparque, aufp.geral@gmail.com,931943896,
174,Associação Veterinários Sem Fronteiras - Portugal,http://www.facebook.com/VeterinariosSemFronteiras?sk=notes,ONGD,1300-477,Lisboa,"Faculdade de Medicina Veterinária, Avenida da Universidade Técnica, Pólo Alto da Ajuda", vsfpt@fmv.utl.pt ,213652800 / 213652838,
175,ATACA – Associação de Tutores e Amigos da Criança Africana,http://www.ataca.org/,ONGD,4200-209,Porto,"Rua Faria Guimarães, n.º 842", ataca@ataca.org,220 176 997,
176,AVOAR - Associação para a Educação Artística e as Literacias,,ONGD,7320-438,Castelo de Vide,"Rua D.José, n.º 3, r/c esq.", rui.andrade@avoar.org ,245 919 140,
177,Caritas Portuguesa ,http://www.caritas.pt/,ONGD,1000-238,Lisboa,Praça Pasteur n.º 11 – 2.º Esq., caritas@caritas.pt ,218454220,
178,Causa Maior – Associação,,ONGD,2950-306,Palmela,"Casal de S. Julião, Estrada do Castelo", causamaior.ongd@gmail.com ,919673096,
179,Centro de Estudos Africanos da Universidade do Porto,http://www.africanos.eu/ceaup,ONGD,4150-564,Porto,Faculdade de Letras da Universidade do Porto – Via Panorâmica – s/n, ceaup@letras.up.pt ,226 077 141,
180,CENTROP - Centro de Estudos Tropicais para o Desenvolvimento,http://www.centrop.org/,ONGD,1349-017,Lisboa,"Instituto Superior de Agronomia, Tapada da Ajuda", centrop@isa.utl.pt,21 365 31 28,
181,Chapitô – Coletividade Cultural e Recreativa de Santa Catarina,http://www.chapito.org/,ONGD,1149-079,Lisboa,"Costa do Castelo, n.º 1/7", teresa.ricou@chapito.org ,21 885 55 50,
182,CIDAC - Centro de Informação e Documentação Amílcar Cabral,http://www.cidac.pt/,ONGD,1050-069,Lisboa,"Rua Pinheiro Chagas, 77, 1º Dto.", cidac@cidac.pt ,213172860,
183,CLR Project - Associação de Apoio Social,,ONGD,2070,Cartaxo,"Travessa do Quintino, Bloco E, 2.º Dto", guerreirov@sapo.pt ,91 411 55 82,
184,Comité Português para a UNICEF,http://www.unicef.pt/,ONGD,1069-115,Lisboa,"Av. António Augusto Aguiar, 21 – 3.º Esq.",,21 317 7500 ,
185,Conselho da Diáspora Portuguesa,http://www.diasporaportuguesa.org/,ONGD,2750-834,Cascais,Estrada da Malveira Nº 800, catarina@diasporaportuguesa.org,214858689,
186,Conselho Português para os Refugiados,http://www.cpr.pt/,ONGD,1950-339,Lisboa,"Av. Virgílio Ferreira, lote 764, lojas D-E", geral@cpr.pt ,218 314 372,
187,CONSUMARE– Organização Internacional das Associações de Consumidores de Língua Portuguesa,http://consumare.org/,ONGD,1269-160,Lisboa,"Rua de Artilharia Um, n.º 79 - 5.º", consumare@consumare.org ,21 371 02 13,
188,Cruz Vermelha Portuguesa,http://www.cruzvermelha.pt/,ONGD,1249-083,Lisboa,"Jardim 9 de abril, 1 a 5", cooperacao@cruzvermelha.org.pt,219 313 900,
189,"ECOS – Cooperativa de Educação, Cooperação e Desenvolvimento",http://www.ecos.pt/,ONGD,8000-139,Faro,"Universidade do Algarve, Pavilhão A5", geral@ecos.pt,966 669 345,
190,"Engenho e Obra, Associação para o Desenvolvimento e Cooperação - O.N.G.D.",http://www.engenhoeobra.org/,ONGD,4200-072,Porto,"Rua Dr. António Bernardino de Almeida, 431 - Sala E202", secretariado@engenhoeobra.org ,228 340 583,
191,Equipa d'África Associação,http://www.equipadeafrica.com/,ONGD,1200-667,Lisboa,Praça da Estrela nº 12, geral@equipadafrica.com ,21 397 25 32,
192,"ESDIME – Agência para o Desenvolvimento Local no Alentejo Sudoeste, C.R.L.",,ONGD,7600-337,Messejana,"Rua do Engenho, nº 10", esdime@esdime.pt ,284650000,
193,Espaço Lusófono – Associação de Cooperação para o Desenvolvimento,http://www.espacolusofono.org/,ONGD,4700-224,Braga,Rua Doutor Felicíssimo Campos nº 224/226     , geral@espacolusofono.org ,253066116,
194,Estímulo - Centro de Estudos - Associação,,ONGD,2795-116,Linda-a-Velha,"Largo da Lagoa, 14", estimulo.ce@netcabo.pt ,214 144 089,
195,EU E OS MEUS IRMÃOS – Associação para o Desenvolvimento da Criança,http://eueosmeusirmaos.blogspot.pt/,ONGD,2775-800,Carcavelos,"Rua Ilha do Faial, nº 24, 2º Dto.", eueosmeusirmaos@hotmail.com ,934405376 / 961769774 / 961555843,
196,EUIESA - International Entrepreneurship Sustainability Association,http://www.euiesa.eu/,ONGD,1100-202,Lisboa,"Praça Dom Pedro IV, n.º 74 - 1.º C", info@euiesa.eu ,21 347 12 79,
197,FOCUS - Fundação Assistência Humanitária Europa,,ONGD,1600-001,Lisboa,Rua Abranches Ferrão - Centro Ismaili, focuseuro@cism.com.pt ,217229001,
198,Fundação Bento Menni,https://irmashospitaleiras.pt/fundacao-bento-menni/apresentacao/a-fundacao,ONGD,1600-826,Lisboa,"Rua Prof. Luís da Cunha Gonçalves, Nº 3, R/C A,", fundacaobentomenni@irmashospitaleiras.pt ,217108140,
199,FOS – Associação de Fotografia e Vídeo Participativa,,ONGD,1050-081,Lisboa,"Av. Duque de Ávila, n.º 127 – 3.º andar", anafilipaflores@fos.pt,963873857,
200,Fundação Aga Khan Portugal,http://www.akdn.org/portugal,ONGD,1600-001,Lisboa,Avenida Lusíada, akdn.portugal@akdn.org,217 229 001,
201,Fundação Alentejo ,http://www.fundacao-alentejo.pt/,ONGD,7005-140,Évora,"Avenida Dinis Miranda, n.º 116", geral@fundacao-alentejo.pt ,266759100,
202,Fundação de Assistência Médica Internacional (AMI),http://www.ami.org.pt/,ONGD,1949-008,Lisboa,"R. José Patrocínio, 49", internacional@ami.org.pt ,218362100,
203,Fundação Champagnat,http://www.fundacaochampagnat.org/,ONGD,1500-100,Lisboa,"Estrada de Benfica, n.º 372", funda_champagnat@maristasompostela.org ,217780073,
204,Fundação Cidade Lisboa,http://www.fundacaocidadedelisboa.pt/,ONGD,1700-097,Lisboa,"Campo Grande, n.º 380", fclisboa@fundacaocidadedelisboa.pt,217568241/7,
205,Fundação Dom Manuel II,http://www.casarealportuguesa.org/dynamicdata/funda.asp,ONGD,1200-162,Lisboa,"Rua Duques de Bragança, n.º 10", fdommanuel@portugalmail.pt,213423705,
206,Fundação Fé e Cooperação - FEC,http://www.fecongd.net/,ONGD,1885-076,Moscavide,"Quinta do Cabeço, Porta D", geral@fecongd.org ,218861710,
207,Fundação Gonçalo da Silveira,http://www.fgs.org.pt/,ONGD,1750-296,Lisboa,"Estrada da Torre, 26", geral@fgs.org.pt ,217541627 / 217541620,
208,Fundação S. João de Deus,http://www.fundacao-sjd.pt/,ONGD,1050-130,Lisboa,"Avenida Júlio Dinis, 23, 1.º Esq., Campo Pequeno",sede@fundacao-sjd.pt,217 983 400,
209,G.R.A.C.E. - Associação Grupo para a Reconciliação em Áreas de Crise e Educação,,ONGD,7630-392,Relíquias,Monte do Cerro, grace@tamera.org,283635311,
210,GASNova - Grupo de Ação Social,http://www.gasnova.org/,ONGD,1750-465,Lisboa,"Rua Maluda, n.º 24 - 1.º B", geral@gasnova.org,92 536 36 95 / 91 778 43 90,
211,GASTagus - Grupo de Ação Social do Tagus,http://www.gastagus.org/,ONGD,2744-016,Oeiras,"Campus Instituto Superior Técnico - Taguspark - Sala 0,43, Av. Prof. Dr. Aníbal Cavaco Silva, Porto Salvo", geral@gastagus.org ,960240489,
212,GRAAL,http://www.graal.org.pt/coordenacao,ONGD,1150-215,Lisboa,Rua Luciano Cordeiro n.º 24 - 6º andar, secretariado@graal.org.pt / terraco@graal.org.pt ,21 354 68 31,
213,Grupo de Acção Social do Porto – G.A.S. Porto,http://www.gasporto.pt/,ONGD,4200-465,Porto,"Rua Dr. Roberto Frias, s/n", gasporto@gmail.com / info@gasporto.org,962256450 / 916343765,
214,Guardiões da Vida – Associação para o Fórum da Energia e Clima,http://www.climaeenergia.org/,ONGD,107300-555,Portalegre,Campus Politécnico de Portalegre,,,
215,Health 4 MOZ - Associação Health for Mozambican Kids and Mothers,http://gasnova.org/,ONGD,4450-676,Leça da Palmeira,"Rua Dr. Francisco Sá Carneiro, 142", info@healtbmoz.com ,,
216,Help Images - Associação de Promoção e Apoio à Solidariedade Social,http://www.helpimages.org/,ONGD,800-075,Lisboa,"Rua Cidade de Bissau, Lote 19, 14.º Esq. Frente 1", geral@helpimages.org ,917197319 /962407188,
217,Helpo - O Nosso Mundo é Humano,http://www.helpo.pt/,ONGD,2750-318,Cascais,"Rua da Catarina Eufémia, 167 A, Fontainhas", info@helpo.pt,211537687,
218,HUMANITAVE - Associação de Emergência Humanitária,http://humanitave.blogspot.com/,ONGD,4765-350,Oliveira Santa Maria,"Rua da Aldeia Nova, n.º 130, R/C", geral@humanitave.pt ,962784200/962784200,
219,Humanity Himalayan Mountains,https://humanity-himalyan-mountains.pt/,ONGD,3090-707,Figueira da Foz,"Rua do Hospital, n.º 41 - 2.º Ftr.", info@humanity-himalayan-mountains.pt,912375774,
220,IAC - Instituto de Apoio à  Criança,http://www.iacrianca.pt/,ONGD,1349-045,Lisboa,"Largo da Memória, n.º 14", iac-prua@iacrianca.pt,213617880,
221,ICE - Instituto das Comunidades Educativas,http://www.iceweb.org/,ONGD,2910-614,Setúbal,"Rua do Moinho, n.º 1, r/c, D11, Bela Vista", alternativa.ice@gmail.com ,265 783 006,
222,IMVF - Fundação Instituto Marquês de Valle-Flôr,http://www.imvf.org/,ONGD,1100-548,Lisboa,"R. de S. Nicolau, 105", info@imvf.org ,213 256 300,
223,IPAV - Instituto Padre António Vieira,,ONGD,4200-072,Porto,"CiDEB - Universidade Católica Portuguesa na Rua Dr. Bernardino de Almeida, n.º 400", secretariado@ipav.pt ,21 885 47 30,
224,Kanimambo - Associação de Apoio ao Albinismo,https://pt-pt.facebook.com/MKanimambo/,ONGD,1600-468,Lisboa,"Rua Frederico George, n.º 29 - 1.º D", kanimambopt@gmail.com,919 859 381,
225,Leigos para o Desenvolvimento,http://www.leigos.org/,ONGD,1750-296,Lisboa,"Estrada da Torre, n.º 26", geral@leigos.org ,217 574 278,
226,Mães do Mundo – Associação,http://maesdomundo.comunidades.net/,ONGD,3080-378,Figueira da Foz,"Rua Vale dos Poços, n.º 24-M", maesdomundo@hotmail.com ,968 900 838,
227,Massala - Associação de Médicos no Abraço a Moçambique,,ONGD,4150-650,Porto,"Rua Marechal Saldanha, n.º 34", clararamalhao@gmail.com,962428898,
228,Meninos do Mundo - Associação,http://www.meninosdomundo.org/,ONGD,1900-073,Lisboa,"Rua António Luís Inácio, nº 31, 4º Dto.", meninosdomundo@gmail.com ,,
229,"MONTE – Desenvolvimento Alentejo Central, ACE",http://www.monte-ace.pt/,ONGD,7040-066,Arraiolos,"Rua Joaquim Basílio Lopes, n.º 1", monte@monte-ace.pt ,266490090,
230,MSH - Missão Saúde para a Humanidade,http://www.msh.pt/,ONGD,3810-193,Aveiro,"Incubadora de Empresas, Universidade de Aveiro, Pavilhão I – Campus Universitário de Santiago", contacto@msh.pt,234 380 300,
231,Mundo a Sorrir - Associação de Médicos Dentistas Solidários Portugueses,http://www.mundoasorrir.org/,ONGD,4150-213,Porto,"Rua Ciríaco Cardoso, 265-C, 5.º Dto.", geral@mundoasorrir.org,220169882,
232,Na Rota dos Povos - Associação Cultural e Desportiva,http://www.narotadospovos.com/pagegen.asp?SYS_PAGE_ID=782773,ONGD,4450-287,Matosinhos,"Rua Sousa Aroso, 700, R/C Esq.", narotadospovos@gmail.com / tito.baiao@narotadospovos.com,964583380,
233,"Ocean Alive, Cooperativa ",https://www.ocean-alive.org/,ONGD,7080-303,Vendas Novas,Bombel – Casal 32,,,
234,OIKOS - Cooperação e Desenvolvimento,http://www.oikos.pt/,ONGD,2790-447,Queijas,"Rua Visconde Moreira de Rey, 37 Linda-a-Pastora, Oeiras", oikos.sec@oikos.pt,218823630,
235,ONGD MOVE - Associação de Microcrédito e Empreendedorismo,http://www.catolicamove.com/,ONGD,1649-023,Lisboa,"Universidade Católica Portuguesa, Edifício CLBSE, G. 673, Palma de Cima",Email: coo@catolicamove.com,,
236,OMAS - Obra Missionária de Acção Social,http://leigos.boanova.pt/,ONGD,3721-908,Aveiro,"Largo da Igreja, Apartado 40 - Vila de Cucujães", omas.lbn@sapo.pt,256 899 337/330,
237,ORBIS - Cooperação e Desenvolvimento,,ONGD,3810-506,Aveiro,"Edifício CUFC Rua João Jacinto Magalhães, Campus Universitário de Santiago", info@orbiscooperation.org,234 420 600,
238,P&D Factor – Associação para a Cooperação sobre População e Desenvolvimento,https://popdesenvolvimento.org/,ONGD,1600-175,Lisboa,"Calçada da Palma de Baixo, nº 17, 3º Esq.", popdfactor@gmail.com ,917908514,
239,PAP - Associação Pão a Pão,https://m.facebook.com/paoapao.associacao/,ONGD,1600-414,Lisboa,"Rua Armindo Rodrigues, n.º 19 - 4.º Esq.", associacao.paoapao@gmail.com,93 678 66 03,
240,PAR - Respostas Sociais,http://www.par.org.pt/,ONGD,1749-016,Lisboa,"TECLABS - Campus da Faculdade de Ciências Universidade de Lisboa, Campo Grande", info@par.org.pt ,210935349,
241,Partilha Constante,,ONGD,2726-901,Mem Martins,"Estação de Correios de Mem Martins, Apartado 382", geral@partlhaconstante.org ,935453976,
242,Passo Positivo - Associação de Acção Social,http://www.passo-positivo.pt/,ONGD,4460-246,Senhora da Hora,"Rua Artur Napoleão, n.º 194", associacao.passopositivo@gmail.com / passopositivo@hotmail.com ,939 310 161,
243,PEEP - Educar para Empreender,http://www.peep.pt/,ONGD,4169-005,Porto,"Faculdade de Economia e Gestão da Universidade Católica do Porto, Centro Regional do Porto, Rua Diogo Botelho, n.º 1327", info@peep.pt ,91 781 85 79 ,
244,"Pelo Prazer de Viver/Saúde, Cultura e Vida – Associação de Desenvolvimento Social",http://www.appv-scv.pt/,ONGD,4535-209,Mozelos,"Rua Santa Luzia, n.º 85", appv.scv@gmail.com ,227472160,
245,Pista Mágica Associação,http://www.pista-magica.pt/,ONGD,4435-354,Rio Tinto,"Rua da Boavista, n.º 543", escoladevoluntariado@gmail.com,229 069 619,
246,"Por + Sorrisos, Associação de Voluntariado Portugal - Cabo Verde",,ONGD,3700-511,Arrifana,"Rua Frei Luís de Sousa, n.º 6", portugalcaboverde@hotmail.com,919 575 803,
247,"PSI-ON - Associação para a Educação, Desenvolvimento e Intervenção nas Comunidades",http://www.psi-on.org/,ONGD,4700-307,Braga,"Largo São Francisco, n.º 24 - 1.º TR, 1.º FR", geral@psi-on.org ,91 692 20 20,
248,REAPN - Rede Europeia Anti-Pobreza Portugal,http://www.eapn.pt/,ONGD,1600-196,Lisboa,"Rua Soeiro Pereira Gomes, 7, Apt. 311", ana.lopes@eapn.pt,217986448/9,
249,Rede Inducar,http://www.inducar.pt/v/index.php/pt/,ONGD,4000-201,Porto,Rua da Fábrica Social SN, info@inducar.pt,915335031,
250,Resgatar Sorrisos – Associação Humanitária para a Cooperação e Desenvolvimento,http://www.rostosolidario.pt/,ONGD,2410-111,Leiria,"Largo da Infantaria 7, n.º 19 – 1.º andar", l.branquinhocrespo-1430c@adv.oa.pt,244843270,
251,Rosto Solidário - Associação de Desenvolvimento Social e Humano,http://www.rostosolidario.pt/,ONGD,4520-239,Santa Maria da Feira,"Rua Mestre António Joaquim, 8", geral@rostosolidario.pt ,256 336 001,
252,RSET – Associação Técnico-Científica para o Desenvolvimento,http://www.rset.eu/,ONGD,1070-129,Lisboa,"Rua Fialho de Almeida , nº 14, 2º Esq",info@rset.eu / rset.info@gmail.com,,
253,Ser Mais Valia – Associação de Voluntariado para a Cidadania e Desenvolvimento,http://www.sermaisvalia.org/,ONGD,1300-906,Lisboa,"Bairro da Quinta do Cabrinha, Av. De Ceuta, loja 4C", geral@sermaisvalia.org,964286260,
254,SIM – Solidariedade Internacional a Moçambique,http://www.ongsim.org/pt/,ONGD,1200-619,Lisboa,"Rua Borges Carneiro, nº 18, 5º Esq.", geral@ongsim.org,935550555,
255,Sol Sem Fronteiras - Associação de Solidariedade Jovem Sem Fronteiras ,http://www.solsef.org/,ONGD,1200-801,Lisboa,"Rua de Santo Amaro à Estrela, nº51", info@solsef.org,213940047,
256,SOPRO – Organização Não Governamental de Solidariedade e Promoção,http://www.sopro.org.pt/,ONGD,4755-054,Barcelinhos,"Rua Irmãos de la Salle, Colégio de la Salle", geral@sopro.org.pt ,253831249,
257,Terras Dentro - Associação para o Desenvolvimento Integrado,http://www.terrasdentro.pt/,ONGD,7090-049,Alcáçovas,Rua Rossio do Pinheiro, atd@terrasdentro.pt,266 948 070,
258,"TESE – Associação para o Desenvolvimento da Tecnologia, Engenharia, Saúde e Educação",http://www.tese.org.pt/,ONGD,1250-022,Lisboa,"Rua das Amoreiras, 101", info@tese.org.pt,213 868 404,
259,Tkcv – Take C'air Crew Volunteers,http://www.takecair.blogspot.com/,ONGD,2795-208,Linda-a-Velha,Rua Jacinto Soares de Albergaria 1 – 3B, pat.takecair@gmail.com,919797906,
260,"Transparência e Integridade, Associação Cívica",https://transparencia.pt/,ONGD,1600-189,Lisboa,"Avenida Professor Aníbal de Bettencourt, n.º 9", secretariado@transparencia.pt,217522075,
261,Única Mixing Cultures,http://www.ongunica.org/,ONGD,2705-180,Colares,"Av. dos Bombeiros Voluntários, n.º 39", unica@mixingcultures.eu,91 706 99 65,
262,UNITE - Association of Parliamentarians to End HIV/AIDS,http://unitenetwork.org/,ONGD,1600-548,Lisboa,"Rua Padre Américo, n.º 20 - 3.º A", unitenetwork@unitenetwork.org,213917377,
263,Univerdesafio - Associação para a Cooperação e Desenvolvimento,http://www.univerdesafio.org/,ONGD,2870-129,Montijo,"Praceta Cidade de Braga, nº 157", onguniverdesafio@gmail.com,917192845,
264,URB-ÁFRICA - Associação para a Cooperação e Desenvolvimento Urbano,http://www.uccla.pt/index.php?id=773,ONGD,1300-300,Lisboa,"Avenida da Índia, n.º 110", uccla@uccla.pt ; depfinanceiro@uccla.pt,927550188,
265,VIDA - Voluntariado Internacional para o Desenvolvimento Africano,http://www.vida.org.pt/,ONGD,1200-034,Lisboa,"Pátio do Pimenta, n.º 25", vida@vida.org.pt,213433022,
266,WACT – We Are Changing Together,http://www.wact.pt/,ONGD,1601-801,Lisboa,Apartado 042107 EC Telheiras, info@wact.pt,935989792,
267,AIGAST – Associação de Imigrantes Guineenses dos Amigos a Sul do Tejo,https://sites.google.com/site/aigastva/,ONGM,,,,,,Direitos Humanos
268,Amnistia Internacional Portugal,https://www.amnistia.pt/,ONGM,,,,,,Direitos Humanos
269,Associação Cultural Moinho da Juventude,http://moinhodajuventude.pt/,ONGM,,,,anna.rita.domingos@gmail.com,214974027,Direitos Humanos
270,AMUCIP – Associação para o Desenvolvimento das Mulheres Ciganas em Portugal,https://amucip.weebly.com/,ONGM,,,,,,Direitos das Mulheres
271,Associação ILGA – Portugal,https://ilga-portugal.pt/,ONGM,,,,,,Igualdade de Género
272,AMCV – Associação de Mulheres Contra a Violência,https://www.amcv.org.pt/,ONGM,,,,,,Direitos das Mulheres
273,Associação Espaços – Projetos Alternativos de Mulheres e Homens,http://associacaoespacos.blogspot.com/,ONGM,,,,,,Igualdade de Género
274,Associação Mulher Migrante – Associação de Estudo Cooperação e Solidariedade,https://mulhermigrante.wixsite.com/mulher-migrante,ONGM,,,,,,Direitos das Mulheres
275,Associação “não te prives” – Grupo de Defesa dos Direitos Sexuais,http://naoteprives.blogspot.com/,ONGM,,,,,,Igualdade de Género
276,ANE – Associação Nacional das Empresárias,https://www.ane.pt/,ONGM,,,,,,Direitos das Mulheres
277,APF – Associação para o Planeamento da Família,http://www.apf.pt/,ONGM,,,,,,Igualdade de Género
278,APEM – Associação Portuguesa de Estudos sobre as Mulheres,http://www.apem-estudos.org/,ONGM,,,,,,Direitos das Mulheres
279,APIHM – Associação Portuguesa de Investigação Histórica sobre as Mulheres,https://www.ifrwh.com/portugal,ONGM,,,,,,Direitos das Mulheres
280,APMD – Associação Portuguesa Mulheres e Desporto,https://cidadaniaemportugal.pt/apmd/,ONGM,,,,,,Direitos das Mulheres
281,AMONET – Associação Portuguesa de Mulheres Cientistas,https://amonetpt.wixsite.com/amonet,ONGM,,,,,,Igualdade de Género
282,APME – Associação Portuguesa de Mulheres Empresárias,https://amep.pt/,ONGM,,,,,,Direitos das Mulheres
283,APMJ – Associação Portuguesa de Mulheres Juristas,https://apmj.pt/,ONGM,,,,,,Direitos das Mulheres
284,Cáritas Portuguesa (Direitos Humanos) A definir,https://caritas.pt/,ONGM,,,,,,
285,Liga Portuguesa dos Direitos Humanos – CIVITAS,http://www.direitoshumanos.pt/,ONGM,,,,,,Direitos Humanos
286,Chapitô,https://chapito.org/,ONGM,,,,,,Igualdade de Género
287,Comissão de Mulheres da UGT,http://www.ugt.pt/cm/CMulheres.html,ONGM,,,,,,Direitos das Mulheres
288,Comissão para a Igualdade entre Mulheres e Homens da CGTP-IN,http://www.cgtp.pt/cgtp-in/organizacoes-especificas/comissao-de-igualdade-mulheres-homens,ONGM,,,,,,Direitos das Mulheres
289,Comunidade Fé Bahá,https://www.bahai.pt/?fbclid=IwAR3-kKGDpdfh3Q2mq3U0oabDuYFNe4PjALkcajIcSKKrtjgBW9j1UfgcFyo,ONGM,,,,,,Igualdade de Género
290,CNOD – Confederação Nacional dos Organismos de Deficientes,http://www.cnod.pt/,ONGM,,,,,,Direitos Humanos
291,CVP - Cruz Vermelha Portuguesa,https://www.cruzvermelha.pt/,ONGM,,,,,,Direitos Humanos
292,Dress For Success Lisboa,https://lisbon.dressforsuccess.org/,ONGM,,,,,,Direitos das Mulheres
293,FNAJ – Federação Nacional de Associações Juvenis,https://www.fnaj.pt/,ONGM,,,,,,Igualdade de Género
294,GRAAL,http://www.graal.org.pt/,ONGM,,,,,,Direitos das Mulheres
295,MARP – Associação das Mulheres Agricultoras e Rurais Portuguesas,https://www.facebook.com/associacaomarp/about/?ref=page_internal,ONGM,,,,,,Direitos das Mulheres
296,Moura Salúquia – Associação de Mulheres do Concelho de Moura,http://amcmoura.pt/,ONGM,,,,,,Direitos das Mulheres
297,MDM – Movimento Democrático de Mulheres,https://www.mdm.org.pt/,ONGM,,,,,,Direitos das Mulheres
298,Mulher Século XXI,https://www.mulherseculoxxi.com/,ONGM,,,,,,Direitos das Mulheres
299,OIKOS – Cooperação e Desenvolvimento,https://www.oikos.pt/,ONGM,,,,,,Direitos Humanos
300,Opus Diversidades,https://opusdiversidades.org/en/,ONGM,,,,,,Igualdade de Género
301,"Pró-Dignitate, Fundação de Direitos Humanos",https://www.prodignitate.pt/,ONGM,,,,,,Direitos Humanos
302,Rede ex aequo – Associação de Jovens lgbts,https://www.rea.pt/,ONGM,,,,,,Igualdade de Género
303,Rede Europeia Anti Pobreza/Portugal,https://www.eapn.pt/,ONGM,,,,,,Direitos Humanos
304,REDE – Rede Portuguesa de Jovens para a Igualdade de Oportunidades entre Mulheres e Homens,http://www.redejovensigualdade.org.pt/,ONGM,,,,,,Igualdade de Género
305,Soroptimist Internacional,https://www.soroptimistinternational.org/,ONGM,,,,,,Direitos Humanos
306,UMAR – União de Mulheres Alternativa e Resposta,http://www.umarfeminismos.org/,ONGM,,,,,,Direitos das Mulheres
307,"AJPAS - Associação de Intervenção Comunitária, Desenvolvimento Social e de Saúde",https://www.ajpas.org.pt/,ONGM,,,,,,
308,AKTO - Direitos Humanos e Democracia,http://www.akto.org/pt/,ONGM,,,,,,
309,AMRT - Associação para a Mudança e Representação Transcultural,https://www.amrtranscultural.org/,ONGM,,,,,,
310,ANIMAR - Associação Portuguesa para o Desenvolvimento Local,https://www.animar-dl.pt/,ONGM,,,,,,
311,APAV - Associação Portuguesa de Apoio à Vítima (APAV),https://apav.pt/apav_v3/index.php/pt/,ONGM,,,,,,
312,API - Ação pela Identidade,https://apidentidade.wordpress.com/,ONGM,,,,,,
313,"APSHSTDC - Associação Portuguesa de saúde, Higiene e Segurança no Trabalho para o Desenvolvimento e Cooperação Internacional",https://apshstdc.pt/,ONGM,,,,,,
314,Associação Balodiren,https://woman21.eventqualia.net/pt/pt/palestrantes/4148/,ONGM,2605-698,Casal Cambra,Av. de Santa Marta n.º 40 - 6.º B Quinta Nova,abalodiren@gmail.com,,
315,Associação dos Filhos e Amigos de Farim,http://www.afafc.pt/,ONGM,,,,,,
316,Associação Gravidez e Parto,https://associacaogravidezeparto.pt/,ONGM,,,,,,
317,Associação Guias de Portugal,http://www.guiasdeportugal.org/,ONGM,,,,,,
318,Associação Mulheres na Arquitetura,https://about.me/mulheresnaarquitectura,ONGM,,,,,,
319,Associação Mulheres sem Fronteiras,https://www.facebook.com/mulheressemfronteiras/,ONGM,,,,,,
320,Associação O Ninho,https://www.oninho.pt/,ONGM,,,,,,
321,Associação Plano i,https://www.associacaoplanoi.org/,ONGM,,,,,,
322,Associação Portuguesa para a Igualdade Parental e Direitos dos Filhos,https://igualdadeparental.org/,ONGM,,,,,,
323,Associação Projeto Criar,https://www.facebook.com/projectocriar/,ONGM,,,,,,
324,CIEG - Centro Interdisciplinar de Estudos de Género,http://cieg.iscsp.ulisboa.pt/,ONGM,,,,,,
325,Coolabora,https://coolabora.pt/,ONGM,,,,,,
326,Federação Portuguesa de Corfebol,http://www.fpcorfebol.pt/,ONGM,,,,,,
327,FEM - Feministas Em Movimento,https://fem.org.pt/,ONGM,,,,,,
328,"FEMAFRO - Associação de Mulheres Negras, Africanas e Afro Descendentes em Portugal",https://femafro.pt/,ONGM,,,,,,
329,IAC - Instituto de Poio à Criança,https://iacrianca.pt/,ONGM,,,,,,
330,Movimento Musqueba,https://pt-pt.facebook.com/movimentomusqueba/,ONGM,,,,,,
331,P&D Factor - Associação para a Cooperação sobre População e Desenvolvimento,https://popdesenvolvimento.org/,ONGM,,,,,,
332,PADEMA - Plataforma para o Desenvolvimento da Mulher Africana,https://feminista.pt/organizacoes/padema-plataforma-para-o-desenvolvimento-da-mulher-africana,ONGM,,,,,,
333,PPDM - Plataforma Portuguesa para os Direitos das Mulheres,https://plataformamulheres.org.pt/,ONGM,,,,,,
334,Quebrar o Silêncio,https://quebrarosilencio.pt/,ONGM,,,,,,
335,Questão de Igualdade,https://questaodeigualdade.pt/,ONGM,,,,,,
336,"SEIES - Sociedade de Estudos e Intervenção em Engenharia Social, Crl",http://www.cooperativaseies.org/,ONGM,,,,,,
337, A Nossa História - Associação de Pais de Apoio a Pessoas com Necessidades Especiais ,https://dges.gov.pt/en/node/938,ONGPD,,,,,,
338, AACCB - Associação de Apoio à Criança do Distrito de Castelo Branco ,https://aac-cb.wixsite.com/apoioacrianca,ONGPD,,,,,,
339, ?AADVDB - Associação de Apoio aos Deficientes Visuais do Distrito de Braga ,https://aadvdb.pt/,ONGPD,,,,,,
340, AAJUDE - Associação de Apoio à Juventude Deficiente ,http://www.aajude.pt/,ONGPD,,,,,,
341, AAMA - Associação de Actividade Motora Adaptada ,https://aama.org.pt/,ONGPD,,,,,,
342, AAPACDM - Associação Algarvia de Pais e Amigos de Crianças Diminuídas Mentais ,https://www.aapacdm.com/,ONGPD,,,,,,
343, AAQ - Associação Amigos dos Queimados ,https://www.aaq.pt/,ONGPD,,,,,,
344, ACAPO - Associação de Cegos e Amblíopes de Portugal ,http://www.acapo.pt/,ONGPD,,,,,,
345, ACASO - Associação Cultural e de Apoio Social de Olhão ,https://www.ipss-acaso.org/,ONGPD,,,,,,
346," ACIP - Ave Cooperativa de Intervenção Psico-Social, CRL ",https://acip.com.pt/,ONGPD,,,,,,
347, ?ACSA - Associação Cultural de Surdos da Amadora ,http://www.acsa.org.pt/QuemSomos.html,ONGPD,,,,,,
348, ACSA - Associação Cultural de Surdos de Águeda ,https://acsagueda.wordpress.com/?fbclid=IwAR0AhO1qdhUiItcn8PXwNlwnLVg-_71QXj-1AuQimbNrBMvo3kde0Hkyumg,ONGPD,,,,,,
349, ADADA - Associação de Desporto Adaptado do Porto ,https://adada.pt/,ONGPD,,,,,,
350, ADAPECIL - Associação de Amor para a Educação de Cidadãos Inadaptados da Lourinhã ,https://adapecil.pt/,ONGPD,,,,,,
351, ADAPTABLE - Associação para a Integração de Pessoas com Necessidades Especiais ,https://aipne.webnode.pt/,ONGPD,,,,,,
352, ADEB – Associação de Apoio aos Doentes Depressivos e Bipolares ,https://www.adeb.pt/,ONGPD,,,,,,
353, ADFA - Associação de Deficientes das Forças Armadas ,https://www.adfa-portugal.com/,ONGPD,,,,,,
354, ADLUPUS – Associação dos Doentes com Lupus ,https://www.lupus.pt/,ONGPD,,,,,,
355, ADM Estrela – Associação Social e Desenvolvimento ,https://www.admestrela.pt/,ONGPD,,,,,,
356, ADRP – Associação dos Doentes Renais de Portugal ,https://www.adrp.pt/,ONGPD,,,,,,
357, ADZC - Associação de Diabéticos da Zona Centro ,https://adzc.webnode.pt/,ONGPD,,,,,,
358, AEIPS - Associação para o Estudo e Integração Psicossocial ,http://www.aeips.pt/,ONGPD,,,,,,
359," AERID - Associação Educar, Reabilitar, Incluir Diferenças ",https://erid.pt,ONGPD,,,,,,
360, AETB - Associação de Equitação Terapêutica de Braga ,https://pt-pt.facebook.com/aetbraga,ONGPD,,,,,,
361, AFACIDASE - Associação de Familiares e Amigos do Cidadão com Dificuldade de Adpatação da Serra da Estrela ,https://www.afacidase.pt/,ONGPD,,,,,,
362, AFAS - Associação de Famílias e Amigos dos Surdos ,http://www.afasurdos.info/,ONGPD,,,,,,
363, AFEHVC - Academia de Formação Equestre e Hipoterapia de Valongo e Campo ,https://www.facebook.com/CHVALONGO,ONGPD,,,,,,
364, AFID - Associação Nacional de Famílias para a Integração da Pessoa com Deficiência ,https://afid.org.pt/,ONGPD,,,,,,
365, AFPAD - Associação Famalicense de Prevenção e Apoio à Deficiência ,http://www.afpad.org/,ONGPD,,,,,,
366," AFUA - Associação de Familiares, Utentes e Amigos do Hospital Magalhães Lemos ",https://afua.pt/,ONGPD,,,,,,
367, AHPV - Associação Hipica e Psicomotora de Viseu ,http://ahpv.pt/,ONGPD,,,,,,
368, ?AIA - Associação para a Inclusão e Apoio ao Autista ,http://www.aia.org.pt/,ONGPD,,,,,,
369, AIJA - Associação para Inclusão de Jovens e Adultos ,https://www.aija.pt/,ONGPD,,,,,,
370, AIPNE - Associação para a Integração de Pessoas com Necessidades Especiais ,https://aipne.webnode.pt/,ONGPD,,,,,,
371, AIREV - Associação para a Integração e Reabilitação Social de Crianças e Jovens Deficientes de Vizela ,https://airev.pt/,ONGPD,,,,,,
372, ALADI - Associação Lavrense de Apoio ao Diminuído Intelectual ,https://www.aladi.pt/,ONGPD,,,,,,
373, ALDAF - Associação Lousadense dos Deficientes dos seus Amigos e Familiares ,http://www.aldaf.pt/,ONGPD,,,,,,
374, AMAR e Partilhar 21 - Associação de Apoio a Pessoas Especiais ,https://amarepartilhar21.pt/quem-somos/,ONGPD,,,,,,
375, AMAR 21 - Associação de Apoio à Trissomia 21 ,https://amar21.pt/,ONGPD,,,,,,
376, AMORAMA - Associação de Pais e Amigos de Deficientes Profundos ,http://www.amorama.org/,ONGPD,,,,,,
377, ANACED – Associação Nacional de Arte e Criatividade de e para Pessoas com Deficiência ,https://anacedarte.wixsite.com/anaced,ONGPD,,,,,,
378, ANARP - Associação Nova Aurora na Reabilitação Psicossocial ,http://www.anarp.org.pt/,ONGPD,,,,,,
379, ANDAI - Associação Nacional dos Doentes com Artrites e Reumatismos da Infância ,https://www.andai.org.pt/,ONGPD,,,,,,
380, ANDDI - Associação Nacional de Desporto para a Deficiência Intelectual – Portugal ,https://www.anddi.pt/,ONGPD,,,,,,
381, ANDDVIS - Associação Nacional de Desporto para Deficientes Visuais ,https://anddvis.pt/,ONGPD,,,,,,
382, ANDO Portugal - Associação Nacional de Displasias Ósseas ,https://www.andoportugal.org/,ONGPD,,,,,,
383, ANDST – Associação Nacional de Deficientes Sinistrados do Trabalho ,https://www.andst.pt/,ONGPD,,,,,,
384, ANEA - Associação Nacional da Espondilite Anquilosante ,https://www.anea.org.pt/,ONGPD,,,,,,
385, ANEM - Associação Nacional de Esclerose Múltipla ,http://www.anem.org.pt/,ONGPD,,,,,,
386, ANGEL – Associação Síndrome de Angelman Portugal ,http://www.angel.pt/,ONGPD,,,,,,
387, ANICDV - Associação Nacional para a Inclusão dos Cidadãos com Deficiência Visual ,https://www.facebook.com/anicdv/,ONGPD,,,,,,
388, ANPAR - Associação Nacional de Pais e Amigos Rett ,https://www.anpar.pt/,ONGPD,,,,,,
389, APAC - Ass. de Pais e Amigos de Crianças de Barcelos ,http://apacbarcelos.pt/,ONGPD,,,,,,
390, APACI - Associação de Pais e Amigos das Crianças Inadaptadas (Barcelos) ,http://www.apaci.pt/,ONGPD,,,,,,
391, APADP - Ass. de Pais e Amigos de Deficientes Profundos ,http://apadp.pt/wordpress/,ONGPD,,,,,,
392, APAH - Associação Pais e Amigos Habilitar ,http://paishabilitar.pt/,ONGPD,,,,,,
393, APARSIN - Associação Portuguesa de Apoio e Reabilitação Sénior de Intervenção Neurológica ,https://www.facebook.com/associacaoparsin/about/,ONGPD,,,,,,
394, APATRIS 21 – Associação de Portadores de Trissomia 21 do Algarve ,http://www.apatris21.org/,ONGPD,,,,,,
395, APC Braga - Associação de Paralisia Cerebral de Braga ,http://www.apcb.pt/,ONGPD,,,,,,
396, APC Coimbra – Associação de Paralisia Cerebral de Coimbra ,https://www.apc-coimbra.org.pt/,ONGPD,,,,,,
397, APC Viseu – Associação Paralisia Cerebral de Viseu ,https://www.apcviseu.org/,ONGPD,,,,,,
398, APCA- Associação Portuguesa da Classe Access ,http://apcaccess.pt/,ONGPD,,,,,,
399, APCAS - Associação de Paralisia Cerebral de Almada - Seixal ,https://paralisiacerebral.pt/,ONGPD,,,,,,
400, APCL Lisboa - Associação de Paralisia Cerebral de Lisboa ,http://www.apcl.org.pt/,ONGPD,,,,,,
401, APCVC - Associação Paralisia Cerebral Viana do Castelo ,https://apcvc.pt/,ONGPD,,,,,,
402, APCVR - Associação Paralisia Cerebral Vila Real ,https://www.apcvr.pt/,ONGPD,,,,,,
403, APD – Associação Portuguesa de Deficientes ,https://www.apd.org.pt/,ONGPD,,,,,,
404, APDP - Associação Protetora dos Diabéticos de Portugal ,https://apdp.pt/,ONGPD,,,,,,
405, APEC - Ass. Promotora do Ensino de Cegos ,https://www.apec.org.pt/,ONGPD,,,,,,
406, APECI - Associação para a Educação de Crianças Inadaptadas ,http://www.apeci.org.pt/,ONGPD,,,,,,
407, APELA - Associação Portuguesa de Esclerose Lateral Amiotrófica ,https://www.apela.pt/,ONGPD,,,,,,
408, APERCIM - Associação para a Educação e Reabilitação de Crianças Inadaptadas de Mafra ,https://apercim5.webnode.pt/,ONGPD,,,,,,
409, APEXA – Associação de Apoio à Pessoa Excepcional do Algarve ,http://apexa.org/,ONGPD,,,,,,
410, APFADA – Associação Portuguesa de Familiares e Amigos de Doentes de Alzheimer ,https://alzheimerportugal.org/,ONGPD,,,,,,
411, APH - Associação Portuguesa de Hemofilia e de outras Coagulopatias Congénitas ,http://aphemofilia.pt/,ONGPD,,,,,,
412, APIR - Associação Portuguesa de Insuficientes Renais ,https://www.apir.org.pt/,ONGPD,,,,,,
413, APN – Associação Portuguesa de Doentes Neuromusculares ,http://apn.pt/apn/,ONGPD,,,,,,
414, Apo - Associação Portuguesa de Ostomizados ,https://www.apostomizados.pt/,ONGPD,,,,,,
415, APOFEN - Associação Portuguesa de Fenilcetonúria e Outras Doenças Metabólicas ,https://www.apofen.pt/pt/,ONGPD,,,,,,
416, APOI - Associação Portuguesa de Osteogenese Imperfeita ,https://apoi.pt/,ONGPD,,,,,,
417, APPACDM Anadia - Associação Portuguesa de Pais e Amigos do Cidadão Deficiente Mental de Anadia ,https://www.appacdmanadia.pt/,ONGPD,,,,,,
418, APPACDM Aveiro - Associação Portuguesa de Pais e Amigos do Cidadão Deficiente Mental de Aveiro ,https://www.appacdmaveiro.com/,ONGPD,,,,,,
419, APPACDM Braga - Associação Portuguesa Pais e Amigos do Cidadão Deficiente Mental de Braga ,https://www.appacdm-braga.pt/,ONGPD,,,,,,
420, APPACDM Castelo de Paiva ,https://www.appacdmcpv.pt/,ONGPD,,,,,,
421, APPACDM Coimbra -Associação Portuguesa de Pais e Amigos do Cidadão Deficiente Mental de Coimbra ,http://www.appacdmcoimbra.pt/,ONGPD,,,,,,
422, APPACDM Covilhã - Associação Portuguesa de Pais e Amigos do Cidadão Deficiente Mental da Covilhã ,https://appacdm-covilha.pt/,ONGPD,,,,,,
423, APPACDM Elvas - Associação Portuguesa de Pais e Amigos do Cidadão Deficiente Mental de Elvas ,http://www.appacdm-elvas.org/,ONGPD,,,,,,
424, APPACDM Évora - Associação Portuguesa de Pais e Amigos do Cidadão Deficiente Mental de Évora ,http://www.appacdm-evora.org.pt/,ONGPD,,,,,,
425, APPACDM Figueira da Foz - Associação Portuguesa de Pais e Amigos do Cidadão Deficiente Mental da Figueira da Foz ,https://appacdm-figfoz.com/,ONGPD,,,,,,
426, APPACDM Fundão - Associação Portuguesa de Pais e Amigos do Cidadão Deficiente Mental do Fundão ,https://appacdm-fundao.org.pt/,ONGPD,,,,,,
427, APPACDM Lisboa - Associação Portuguesa de Pais e Amigos do Cidadão Deficiente Mental de Lisboa ,https://appacdm-lisboa.pt/,ONGPD,,,,,,
428, APPACDM Maia - Associação Portuguesa de Pais e Amigos do Cidadão Deficiente Mental da Maia ,https://www.appacdmmaia.org/,ONGPD,,,,,,
429, APPACDM Marinha Grande - Associação Portuguesa de Pais e Amigos do Cidadão Deficiente Mental da Marinha Grande ,http://www.appacdm-mg.com/engine.php?cat=42&area=0,ONGPD,,,,,,
430, APPACDM Matosinhos - Associação Portuguesa de Pais e Amigos do Cidadão com Deficiência Mental de Matosinhos ,http://www.appacdm-matosinhos.com/instituiccedilatildeo.html,ONGPD,,,,,,
431, APPACDM Mirandela - Associação Portuguesa de Pais e Amigos do Cidadão Deficiente Mental de Mirandela ,https://appacdm-mirandela.com/,ONGPD,,,,,,
432, APPACDM Portalegre - Associação Portuguesa de Pais e Amigos do Cidadão Deficiente Mental de Portalegre ,https://www.appacdm-portalegre.pt/,ONGPD,,,,,,
433, APPACDM Porto - Associação Portuguesa de Pais e Amigos do Cidadão Deficiente Mental do Porto ,https://www.appacdmporto.com/,ONGPD,,,,,,
434, APPACDM Santarém - Associação Portuguesa de Pais e Amigos do Cidadão Deficiente Mental de Santarém ,https://appacdm-santarem.pt/,ONGPD,,,,,,
435, APPACDM Setúbal - Associação Portuguesa de Pais e Amigos do Cidadão Deficiente Mental de Setúbal ,http://www.appacdmsetubal.pt/,ONGPD,,,,,,
436, APPACDM Soure - Associação Portuguesa de Pais e Amigos do Cidadão Deficiente Mental de Soure ,http://appacdmsoure.pt/historial/,ONGPD,,,,,,
437, APPACDM Trofa - Associação Portuguesa de pais e Amigos do Cidadão Deficiente Mental da Trofa ,https://www.appacdm-trofa.org/,ONGPD,,,,,,
438, APPACDM Valpaços - Associação Portuguesa de Pais e Amigos do Cidadão Deficiente Mental de Valpaços ,https://appacdm-valp.wixsite.com/site,ONGPD,,,,,,
439, APPACDM Viana do Castelo - Associação Portuguesa de pais e Amigos do Cidadão Deficiente Mental de Viana do Castelo ,https://www.appacdm-viana.pt/,ONGPD,,,,,,
440, APPACDM Vila Nova de Gaia - Associação Portuguesa de pais e Amigos do Cidadão Deficiente Mental de Vila Nova de Gaia ,https://appacdm-gaia.pt/,ONGPD,,,,,,
441, APPACDM Vila Real - Sabrosa - Associação Portuguesa de pais e Amigos do Cidadão Deficiente Mental de Vila Real Sabrosa ,http://www.appacdm-sabrosa.org.pt/,ONGPD,,,,,,
442, APPACDM Viseu - Associação Portuguesa de Pais e Amigos do Cidadão Deficiente Mental de Viseu ,https://www.appacdmviseu.pt/,ONGPD,,,,,,
443, APCE Évora - Associação Paralisia Cerebral de Évora ,http://www.apce.org.pt/,ONGPD,,,,,,
444, APPC Faro - Associação Portuguesa de Paralisia Cerebral de Faro ,http://www.apce.org.pt/,ONGPD,,,,,,
445, APPC Guimarães - Associação Portuguesa Paralisia Cerebral de Guimarães ,http://www.apcg.pt/,ONGPD,,,,,,
446, APPC Leiria - Associação Portuguesa de Paralisia Cerebral - Núcleo Regional ,https://www.appcleiria.pt/quem-somos-apresentacao,ONGPD,,,,,,
447, APPC Odemira - Associação Paralisia Cerebral de Odemira ,http://www.apco.pt/,ONGPD,,,,,,
448, APPC Porto - Associação Paralisia Cerebral do Porto ,https://www.appc.pt/,ONGPD,,,,,,
449, APPDA Algarve - Associação Portuguesa para a Perturbações do Desenvolvimento e Autismo ,http://appda-algarve.pt/,ONGPD,,,,,,
450, APPDA Coimbra - Associação Portuguesa para a Perturbações do Desenvolvimento e Autismo ,http://www.appdacoimbra.com/,ONGPD,,,,,,
451, APPDA Leiria - Associação Portuguesa para o Desenvolvimento e Autismo de Leiria ,https://appdaleiria.pt/,ONGPD,,,,,,
452, APPDA Lisboa - Associação Portuguesa para a Perturbações do Desenvolvimento e Autismo ,https://www.appda-lisboa.org.pt/,ONGPD,,,,,,
453, APPDA Norte - Associação Portuguesa para as Perturbações do Desenvolvimento e Autismo - Norte ,https://www.appda-norte.org.pt/,ONGPD,,,,,,
454, APPDA Setúbal - Associação Portuguesa para a Perturbações do Desenvolvimento e Autismo ,https://www.appda-setubal.com/,ONGPD,,,,,,
455, APPDA Viseu – Associação para a Perturbações do Desenvolvimento e Autismo ,https://www.appdaviseu.com/,ONGPD,,,,,,
456, APS – Associação Portuguesa de Surdos - Delegação de Lisboa ,https://apsurdos.org.pt/,ONGPD,,,,,,
457, APSA - Associação Portuguesa de Síndrome de Asperger ,https://www.apsa.org.pt/pt/,ONGPD,,,,,,
458, APSCDFA -Associação de Promoção Social Cultural e Desportiva de Fornos Algodres ,https://www.apscdfa.pt/,ONGPD,,,,,,
459, APTEC Seculo XXI - Associação Portuguesa de Terapias Equestres e Complementares 'Seculo XXI' ,https://www.facebook.com/APTECOFICIAL/,ONGPD,,,,,,
460, ARCIAL - Ass. Recuperação Crianças Inadaptadas de Oliveira do Hospital ,https://www.facebook.com/Arcial-Oliveira-do-Hospital-199217173423782/,ONGPD,,,,,,
461, ARCIL - Associação para Recuperação de Cidadãos Inadaptados da Lousã ,https://arcil.org.pt/,ONGPD,,,,,,
462, ARCSS - Associação Recreativa Cultural e Social de Silveirinhos ,https://www.facebook.com/associacaosocialdesilveirinhos,ONGPD,,,,,,
463, ARIA - Associação de Reabilitação e Integração Ajuda ,https://www.aria.com.pt/,ONGPD,,,,,,
464, ARP - Associação de Retinopatias de Portugal ,http://retinaportugal.org.pt/wordpress/,ONGPD,,,,,,
465," ARTENAVE, Atelier – Associação de Solidariedade ",https://www.artenave.org/,ONGPD,,,,,,
466, ASA - Associação de Surdos do Algarve ,https://pt-pt.facebook.com/asurdosalgarve/,ONGPD,,,,,,
467, ASAD - Associação Social de Apoio à Deficiência ,https://asad.pt/,ONGPD,,,,,,
468, ASAE - Associação de Surdos da Alta Estremadura ,https://fpasurdos.pt/pt/filiacoes/filiacoes-nacionais/associacoes-filiadas,ONGPD,,,,,,
469, ASBIHP – Associação Spina Bífida e Hidrocefalia de Portugal ,http://www.asbihp.pt/,ONGPD,,,,,,
470, ASCUDT - Associação Sócio-Cultural dos Deficientes de Trás os Montes ,https://ascudt.org.pt/index/,ONGPD,,,,,,
471, ASFP - Associação Sanfilippo Portugal ,https://www.sanfilippoportugal.com/,ONGPD,,,,,,
472, ASGVA - Associação de Surdos de Guimarães e Vale do Ave ,https://fpasurdos.pt/pt/filiacoes/filiacoes-nacionais/associacoes-filiadas,ONGPD,,,,,,
473, ASLCascais - Associação de Surdos da Linha de Cascais ,https://aslcascais.wixsite.com/bem-vindo?fbclid=IwAR0grXuthd6UVLs4uq6bppe8zHVCI4yqDXtZh231GxBNxl53YcZE8oyRQlI,ONGPD,,,,,,
474, ASMAL – Associação de Saúde Mental do Algarve ,http://www.asmal.org.pt/,ONGPD,,,,,,
475, ASP - Associação de Surdos do Porto ,http://www.asurdosporto.org.pt/,ONGPD,,,,,,
476, Associação AlmaSã - Centro de Educação Especial de Almada ,https://pt-pt.facebook.com/pages/category/Nonprofit-Organization/AlmaS%C3%A3-Centro-de-Educa%C3%A7%C3%A3o-Especial-de-Almada-CEEA-199536740101918/,ONGPD,,,,,,
477, Associação Centro de Vida Independente ,https://vidaindependente.org/,ONGPD,,,,,,
478, Associação Comunidade Filhos sem Voz ,https://www.facebook.com/groups/141575559800295/,ONGPD,,,,,,
479, Associação da Creche de Braga - Centro Novais e Sousa ,https://www.associacaocrechedebraga.pt/,ONGPD,,,,,,
480, Associação de Solidariedade Social de Espadanedo ,https://assespadanedo.com/,ONGPD,,,,,,
481, Associação de Surdos de Évora ,https://www.asurdosevora.org/,ONGPD,,,,,,
482, Associação Despertar do Silêncio - Associação de Surdos da Guarda ,https://despertardosilenci5.wixsite.com/,ONGPD,,,,,,
483, Associação Dom Maior ,https://www.dommaior.pt/,ONGPD,,,,,,
484, Associação Equiterapêutica do Porto e Matosinhos ,https://www.aepm.pt/,ONGPD,,,,,,
485, Associação IPAFASIA ,https://ipafasia.pt/,ONGPD,,,,,,
486, Associação Jorge Pina ,https://www.facebook.com/associacao.jorge.pina/,ONGPD,,,,,,
487, Associação José Santos ,https://www.associacaojosesantos.pt/,ONGPD,,,,,,
488, Associação Mellitus Criança ,http://www.mellituscrianca.pt/,ONGPD,,,,,,
489, Associação Olhar 21 ,https://www.olhar21.com/,ONGPD,,,,,,
490, Associação PARA - Projeto de Apoio e Recursos para o Autismo ,http://associacaopara.com/?fbclid=IwAR2k753HfYKP6jgU0kbgWB_XIl5whRMFjnQcwGCar6ru2W_tLUqH7ogn8Oo,ONGPD,,,,,,
491, Associação Portuguesa de Surf Adaptado ,https://www.surfadaptado.pt/,ONGPD,,,,,,
492, Associação Rising Child ,https://www.risingchild.pt/,ONGPD,,,,,,
493, Associação Rumo à Vida ,https://www.rumoavida.pt/,ONGPD,,,,,,
494, Associação Salvador ,https://www.associacaosalvador.com/,ONGPD,,,,,,
495, Associação Síndrome de Dravet - Portugal ,https://dravet.pt/,ONGPD,,,,,,
496, Associação Social Cultural e Desportiva Os Trovões ,https://pt-pt.facebook.com/ascd.ostrovoes/info,ONGPD,,,,,,
497, Associação Valecambrense de Pais e Amigos do Cidadão Deficiente ,https://www.cm-valedecambra.pt/pages/382,ONGPD,,,,,,
498, Associação Vidas Alegres ,https://empresite.jornaldenegocios.pt/ASSOCIACAO-VIDAS-ALEGRES-AVA.html,ONGPD,,,,,,
499, Associação Vila com Vida - A Mais Valia na Diferença ,https://www.vilacomvida.pt/,ONGPD,,,,,,
500, Associação 29 de Abril ,https://a29abril.wordpress.com/,ONGPD,,,,,,
501, ASSOL – Associação de Solidariedade Social de Lafões ,https://assol.pt/,ONGPD,,,,,,
502, ASTA – Associação Sócio-Terapeutica de Almeida ,https://assterapeutica.com/,ONGPD,,,,,,
503, AVI - Associação Vida Independente ,https://avi-vidaindependente.pt/,ONGPD,,,,,,
504, AVISPT21 – Associação de Viseu de Portadores de Trissomia 21 ,https://pt-pt.facebook.com/AVISPT21-Associa%C3%A7%C3%A3o-de-Viseu-de-Portadores-de-Trissomia-21-1642598149403790/,ONGPD,,,,,,
505, A2I - Associação para a Inclusão e Independência das Pessoas com Deficiência ,https://pt-pt.facebook.com/AssociacaoA2I/,ONGPD,,,,,,
506, A2000 - Associação 2000 de Apoio ao Desenvolvimento ,http://www.a2000.pt/quem_somos/index.php,ONGPD,,,,,,
507," Bengala Mágica - Associação de Pais, Amigos e Familiares de Crianças, Jovens e Adultos Cegos e de Baixa Visão ",https://bengalamagica.pt/,ONGPD,,,,,,
508, BIPP - Banco de Informação de Pais para Pais ,https://semear.pt/,ONGPD,,,,,,
509, CADIn - Centro de Apoio ao Desenvolvimento Infantil ,https://www.cadin.net/,ONGPD,,,,,,
510, Casa João Cidade - Comunidade Sócio Terapeutica ,http://www.casajoaocidade.pt/?fbclid=IwAR1z4L7DgoXTy1Qo4GE9pzfqU87W_5cYAvgqiA7VuzikjJMDotfwdAGNl0c,ONGPD,,,,,,
511, Casa Santa Isabel - Casa de Santa Isabel - Instituto de Pedagogia Curativa e Socioterapia ,https://www.casasantaisabel.org/,ONGPD,,,,,,
512, CASCI – Centro de Acção Social do Concelho de Ílhavo ,https://www.cm-ilhavo.pt/pages/4448?poi_id=76,ONGPD,,,,,,
513, CASL - Casa de Acolhimento Sol Nascente ,http://www.casl.pt/,ONGPD,,,,,,
514, Cavalo - Azul Associação de Familias Solidárias com a Deficiência ,https://cavaloazul.net/,ONGPD,,,,,,
515,APPACDM VN Gaia -  APPACDM Vila Nova de Gaia ,https://appacdm-gaia.pt/,ONGPD,,,,,,
516," CECD - Mira Sintra, CRL ",https://www.cecd.pt/,ONGPD,,,,,,
517, CEDEMA - Associação de Pais e Amigos dos Deficientes Mentais Adultos ,https://cedema.org.pt/,ONGPD,,,,,,
518," CEEONINHO - Centro de Educação Especial do Concelho de Rio Maior ""O Ninho"" ",https://ceeoninho.pt/,ONGPD,,,,,,
519," CEERDL – Centro de Educação Especial Rainha Dona Leonor, CRL ",http://ceerdl.org/,ONGPD,,,,,,
520," CEERIA - Centro de Educação Especial, Reabilitação e Integração de Alcobaça ",https://www.ceeria.com/,ONGPD,,,,,,
521," CERCI Flor da Vida - Cooperativa para a Educação e Reabilitação de Crianças Inadaptadas, CRL ",https://www.cerciflordavida.pt/,ONGPD,,,,,,
522," CERCI São João da Madeira - Cooperativa para a Educação e Reabilitação de Cidadãos com Incapacidades, C.R.L ",https://cerci-sjm.pt/,ONGPD,,,,,,
523, CERCIAG - Cooperativa para a Educação e Reabilitação de Crianças Inadaptadas de Águeda ,https://www.cerciag.pt/,ONGPD,,,,,,
524, CERCIAMA - Cooperativa para a Educação e Reabilitação de Crianças Inadaptadas da Amadora ,http://cerciama.pt/default.aspx?canal=12,ONGPD,,,,,,
525, CERCIAZ - Centro de Recuperação de Crianças Deficientes e Inadaptadas de Oliveira de Azeméis ,https://www.cerciaz.pt/,ONGPD,,,,,,
526," CERCIBEJA - Cooperativa para a Educação, Reabilitação, Capacitação e Inclusão de Beja, CRL ",http://cercibeja.org.pt/contactos/,ONGPD,,,,,,
527, CERCIBRAGA - Cooperativa de Educação e Reabiliação de Cidadãos com Incapacidades de Braga ,https://cercibraga.pt/,ONGPD,,,,,,
528, CERCICA - Cooperativa para a Educação e Reabilitação de Crianças Inadaptadas de Cascais ,https://www.cercica.pt/,ONGPD,,,,,,
529, CERCICAPER - Cooperativa de Educação e Reabilitação de Cidadãos Inadaptados de Castanheira de Pera ,http://www.cercicaper.pt/v2/,ONGPD,,,,,,
530," CERCICOA - Coop. de Educ.e Reabilitação de Crianças Inadaptadas e Solidariedade Social de Almodôvar, Castro Verde e Ourique ",https://cercicoa.pt/,ONGPD,,,,,,
531, CERCIDiana - Cooperativa para a Educação e Reabilitação e Inserção de Cidadãos Inadaptados de Évora ,http://www.evora.net/cercidiana/,ONGPD,,,,,,
532, CERCIESPINHO - Cooperativa de Educação e Reabilitação do Cidadão Inadaptado de Espinho ,https://www.cerciespinho.org.pt/,ONGPD,,,,,,
533," CERCIESTA - Cooperativa para a Educação e Reabilitação de Cidadãos Inadaptados de Estarreja, CRL ",https://cerciesta.wixsite.com/2020,ONGPD,,,,,,
534, CERCIEstremoz - Cooperativa para a Educação e Reabilitação de Crianças Inadaptadas ,http://cerciestremoz.pt/,ONGPD,,,,,,
535, CERCIFAFE - Cooperativa para a Educação e Reabilitação e Inserção de Cidadãos Inadaptados de Fafe ,https://www.cercifaf.pt/,ONGPD,,,,,,
536, CERCIFEIRA - Cooperativa para a Educação e Reabilitação de Crianças Inadaptadas da Feira ,http://www.cercifeira.pt/portal/,ONGPD,,,,,,
537, CERCIG - Cooperativa de Educação e Reabilitação de Cidadãos Inadaptados da Guarda ,https://www.cercig.com/,ONGPD,,,,,,
538, CERCIGUI - Cooperativa de Educação e Reabilitação de Cidadãos Inadaptados de Guimarães ,https://cercigui.pt/,ONGPD,,,,,,
539, CERCILEI - Cooperativa de Ensino e Reabilitação de Cidadãos Inadaptados de Leiria ,https://cercilei.pt/,ONGPD,,,,,,
540, CERCILISBOA - Cooperativa de Ensino e Reabilitação de Cidadãos Inadaptados de Lisboa ,https://www.cercilisboa.org.pt/,ONGPD,,,,,,
541, CERCIMA - Cooperativa para a Educação e Reabilitação de Cidadãos Inadaptados do Montijo e Alcochete ,http://www.cercima.pt/,ONGPD,,,,,,
542, CERCIMAC - Cooperativa de Ensino e Reabilitação de Cidadãos Inadaptados de Macedo de Cavaleiros ,https://cercimac.pt/a-nossa-historia/,ONGPD,,,,,,
543," CERCIMARANTE - Cooperativa para a Educação e Reabilitação de Cidadãos com Incapacidade, CRL ",http://www.cercimarante.pt/,ONGPD,,,,,,
544, CERCIMARCO - Cooperativa para a Educação e Reabilitação de Crianças Inadaptadas de Marco de Canavese ,https://www.facebook.com/cercimarco,ONGPD,,,,,,
545, CERCIMB - Cooperativa para a Educação e Reabilitação de Crianças Inadaptadas da Moita e Barreiro ,https://www.cercimb.pt/,ONGPD,,,,,,
546, CERCIMIRA - Cooperativa para a Educação e Reabilitação de Cidadãos Inadaptados de Mira ,http://www.cercimira.pt/,ONGPD,,,,,,
547," CERCIMOR - Cooperativa para a Educação, Reabilitação, Capacitação e Inclusão de Montemor – o - Novo, CRL ",http://www.cercimor.pt/,ONGPD,,,,,,
548, CERCINA – Cooperativa de Ensino e Reabilitação de Crianças Inadaptadas da Nazaré ,https://www.cercina.pt/,ONGPD,,,,,,
549," CERCIOEIRAS - Cooperativa de Educação e Reabilitação de Cidadãos com Incapacidade, CRL ",http://www.cercioeiras.pt/,ONGPD,,,,,,
550, CERCIPENELA - Cooperativa para a Educação e Reabilitação de Crianças Inadaptadas de Penela ,http://www.cercipenela.org.pt/,ONGPD,,,,,,
551, CERCIPENICHE - Cooperativa de Educação e Reabilitação de Cidadãos Inadaptados de Peniche ,https://www.cercipeniche.pt/,ONGPD,,,,,,
552, CERCIPOM - Cooperativa de Ensino e Reabilitação de Cidadãos Inadaptados de Pombal ,http://www.cercipom.org.pt/,ONGPD,,,,,,
553, CERCIPortalegre - Cooperativa de Educação e Reabilitação de Cidadãos com Incapacidade de Portalegre ,http://blogcerciportalegre.blogspot.com/?fbclid=IwAR0dK6cTnxLS6VbZe3U_P9fQUi_Xn1hsd5okABGrTXurO_lVhp11dqqLQwk,ONGPD,,,,,,
554, CERCIPOVOA - Cooperativa para a Educação e Reabilitação de Crianças Inadaptadas de Póvoa de Santa Iria ,http://cercipovoa.pt/,ONGPD,,,,,,
555, CERCISA - Cooperativa para Educação e Reabilitação de Cidadãos Inadapatados de Seixal e Almada ,https://cercisa.pt/,ONGPD,,,,,,
556, CERCITEJO - Cooperativa de Educação e Reabilitação de Crianças Inadaptadas de Alverca ,https://www.cercitejo.org.pt/,ONGPD,,,,,,
557, CERCITOP - Cooperativa de Educação e Reabilitação de Crianças Inadaptadas de Sintra ,http://www.cercitop.org/,ONGPD,,,,,,
558, CERCIZIMBRA - Cooperativa de Educação e Reabilitação de Crianças Inadaptadas de Sesimbra ,http://cercizimbra.org.pt/,ONGPD,,,,,,
559, CERE - Centro de Ensino e Recuperação do Entroncamento ,http://www.cm-entroncamento.pt/index.php/viver/educacao/ensino-especial/388-cere-centro-de-ensino-e-recuperacao-do-entroncamento,ONGPD,,,,,,
560, CIRE - Centro de Integração e Reabilitação de Tomar ,http://www.cire-tomar.org/,ONGPD,,,,,,
561, Clube Judo Total ,http://site.judototal.com/,ONGPD,,,,,,
562, CNAD – Cooperativa Nacional de Apoio a Deficientes ,https://www.facebook.com/Cooperativa-Nacional-de-Apoio-a-Deficientes-194902587359750/,ONGPD,,,,,,
563, CNOD – Confederação Nacional de Organizações de Pessoas com Deficiência ,http://www.cnod.pt/,ONGPD,,,,,,
564, Colégio as Descobertas - Instituto Português de Educação e Investigação Pedagógica ,http://www.ipeip-asdescobertas.pt/?page_id=19,ONGPD,,,,,,
565, Comité Paralimpico de Portugal ,https://paralimpicos.pt/,ONGPD,,,,,,
566," COOP 21 Especial - Cooperativa para o Desenvolvimento Psicossocial de Crianças com Necessidades Especiais, CRL ",https://coop21especial.wixsite.com/coop21especial?fbclid=IwAR3Y-Fl4E3KFbwhIrIhy1MJGN_XG9_jJYIzBd4T8NTL7_c8u_8I_oACLIy4,ONGPD,,,,,,
567," CoopCuidar - Cooperativa Para o Desenvolvimento e Apoio Bio-Psico-Social Do Portador De Deficiência, ",https://www.facebook.com/Coopcuidar,ONGPD,,,,,,
568," Cooperativa de Solidariedade Social, CRL ",https://www.aproximar.pt/,ONGPD,,,,,,
569," Cooperativa FOCUS, CRL ",https://www.cooperativafocus.pt/index.php?l=pt,ONGPD,,,,,,
570, CPC Beja - Centro de Paralisia Cerebral de Beja ,https://cpcbeja.org/,ONGPD,,,,,,
571," CREACIL - Cooperativa de Reabilitação, educação e Animação para a Comunidade Integrada do Concelho de Loures ",http://www.creacil.pt/,ONGPD,,,,,,
572, CRIA - Centro de Reabilitação Infantil de Abrantes ,http://cria.com.pt/,ONGPD,,,,,,
573, CRIAL - Centro de Recuperação Infantil de Almeirim ,https://crialalmeirim.webnode.pt/contactos/,ONGPD,,,,,,
574, CRIB - Centro de Reabilitação Infantil de Benavente ,http://www.crib.pt/pt/,ONGPD,,,,,,
575, CRIC - Centro de Reabilitação e Integração de Coruche ,https://cricoruche.wixsite.com/cric?fbclid=IwAR2zjiPkgOdue-Ujumenf2_eAXDgyT_BH0Cyo1m7eje5uBNVUxiuDyOnQtw,ONGPD,,,,,,
576, CRID - Centro de Reabilitação e Integração de Deficientes ,https://crid.pt/,ONGPD,,,,,,
577, CRIF - Centro de Recuperação Infantil de Fatima ,https://www.crif.org.pt/,ONGPD,,,,,,
578, CRIFZ - Centro de Reabilitação e Integração de Ferreira do Zêzere ,http://www.crifz.pt/,ONGPD,,,,,,
579," CRINABEL - Cooperativa de Solidariedade Social e Ensino Especial, CRL ",http://www.crinabel.pt/,ONGPD,,,,,,
580, CRIT - Centro de Reabilitação e Integração Torrejano ,https://pt-pt.facebook.com/crit.torresnovas,ONGPD,,,,,,
581, Dar Resposta - Associação de Pais e Amigos de Cidadãos do Deficiência ou Incapacidade ,https://www.facebook.com/DAR-Resposta-Associa%C3%A7%C3%A3o-651083564930576,ONGPD,,,,,,
582, Deliciosas Diferenças - Cooperativa de Responsabilidade Limitada ,https://www.facebook.com/cooperativadd,ONGPD,,,,,,
583, DOCE - Associação Nacionaç para Divulgar e Orientar para Combater e Enfrentar a Tay Sachs e outras Gangliosidoses ,http://doce.pt/,ONGPD,,,,,,
584, Emaús - Associação de Apoio ao Decifiente Mental ,https://www.facebook.com/Emaus-444700012374953,ONGPD,,,,,,
585, EMDIIP - Equipa Móvel de Desenvolvimento Infantil e Intervenção Precoce ,https://www.emdiip.com/,ONGPD,,,,,,
586, ENCONTRAR+SE - Associação para a Promoção da Saúde Mental ,https://www.encontrarse.pt/,ONGPD,,,,,,
587, EPI-APFAPE,http://www.epilepsia.pt/,ONGPD,,,,,,
588, EXISTIR – Associação para a Intervenção e Reabilitação de Pessoas Deficientes e Desfavorecidas ,https://existir.org.pt/,ONGPD,,,,,,
589, FAMILIARMENTE - Federação Portuguesa das Associações das Famílias de Pessoas Com Experiência de Doença Mental ,https://familiarmente.pt/,ONGPD,,,,,,
590, FAPPC - Federação das Associações Portuguesas de Paralisia Cerebral ,http://www.fappc.pt/,ONGPD,,,,,,
591, Federação Portuguesa das Associações de Diabéticos ,https://pt-pt.facebook.com/fpad.diabetes/,ONGPD,,,,,,
592, FEDRA - Federação de Doenças Raras de Portugal ,https://fedra.pt/,ONGPD,,,,,,
593, FENACERCI - Federação Nacional das Cooperativas de Solidariedade Social ,https://www.fenacerci.pt/,ONGPD,,,,,,
594, FIBRO - Associação Barcelense de Fibromialgia e Doenças Crónicas ,http://www.fibro.pt/,ONGPD,,,,,,
595, FNERDM - Federação Nacional de Entidades de Reabilitação de Doentes Mentais ,http://www.fnerdm.pt/,ONGPD,,,,,,
596, FORMEM – Federação Portuguesa da Formação Profissional e Emprego de Pessoas com Deficiência e Incapacidade ,https://www.formem.org.pt/pt/,ONGPD,,,,,,
597, For3VerSpecial - Associação Forheever Special ,https://for3verspecial.pt/,ONGPD,,,,,,
598, FPDA - Federação Portuguesa de Autismo ,https://www.fpda.pt/,ONGPD,,,,,,
599, FPDD - Federação Portuguesa de Desporto para Pessoas com Deficiência ,http://fpdd.org/,ONGPD,,,,,,
600, GAC - Grupo de Acção Comunitária ,http://gac.com.pt/,ONGPD,,,,,,
601," GIRA - Grupo de Intervenção e Reabilitação Activa, IPSS ",https://www.gira.org.pt/,ONGPD,,,,,,
602, Grupo Desportivo de Transplatados de Portugal . Associação Promotora de Desporto ,http://gdtp.blogspot.com/,ONGPD,,,,,,
603, HUMANITAS – Federação Portuguesa para a Deficiência Mental ,https://humanitas.org.pt/,ONGPD,,,,,,
604, IN - Associação para a Inclusão ao Longo da Vida ,https://www.in-ipss.pt/,ONGPD,,,,,,
605, INCLUIR - Associação para a Inclusão do Cidadão com Necessidades Especiais Maria do Carmo Silva Melancia ,https://aadpcmcsm.wixsite.com/incluir/associacao,ONGPD,,,,,,
606, Inovar Autismo - Associação de Cidadania e Inclusão ,https://www.inovarautismo.pt/,ONGPD,,,,,,
607, Instituto São João de Deus ,https://www.isjd.pt/,ONGPD,,,,,,
608, Íris Inclusiva - Associação de Cegos e Amblíopes ,https://irisinclusiva.pt/,ONGPD,,,,,,
609, LABOR - Cooperativa de Solidariedade Social ,http://labor-cooperativa.com/,ONGPD,,,,,,
610, LEQUE - Associação de Pais e Amigos de Pessoas com Necessidades Especiais ,https://www.leque.pt/,ONGPD,,,,,,
611, Life Winner - Associação Portuguesa de Transplantados ,http://www.lifewinner.pt/quem-somos/,ONGPD,,,,,,
612, LPCE - Liga Portuguesa contra a Epilepsia ,http://www.epilepsia.pt/en/lpce/lpce,ONGPD,,,,,,
613, MADI - Movimento Apoio ao Diminuído Intelectual de Vila do Conde ,http://madi.pt/contactos/,ONGPD,,,,,,
614, MADI Porto - Movimento Apoio ao Diminuído Intelectual ,https://madiporto.pt/,ONGPD,,,,,,
615, MATIZ - Associação para a Promoção da Saúde Mental ,https://www.matiz.pt/,ONGPD,,,,,,
616, MITHÓS - Associação de Apoio à Multideficiência ,http://www.associacao-mithos.pt/?fbclid=IwAR19pKc2MrC35m3D7hy-V1lWcYXLuq3KfJUPw29ygjOUZXQWmyqrb4u_O9o#,ONGPD,,,,,,
617, NECI – Núcleo de Educação da Criança Inadaptada ,http://www.neci.pt/,ONGPD,,,,,,
618, NOE - Novas Olimpiadas Especiais ,https://www.racius.com/novas-olimpiadas-especiais/,ONGPD,,,,,,
619, NÓS - Associação de Pais e Técnicos para a Integração do Deficiente ,http://nos.org.pt/,ONGPD,,,,,,
620, NOVAMENTE - Associação de Apoio ao Traumatizado Crânio Encefálico e sua Família ,https://www.novamente.pt/,ONGPD,,,,,,
621, Obra Social e Cultural Sílvia Cardoso ,https://oscsilviacardoso.pt/,ONGPD,,,,,,
622, Os Malmequeres ,https://www.malmequeres.pt/,ONGPD,,,,,,
623, Pais em Rede ,https://paisemrede.pt/,ONGPD,,,,,,
624, Pais 21 - Associação de Pais e Amigos de Pessoas com Trissomia 21 ,https://pais21.pt/,ONGPD,,,,,,
625," Palavras Infinitas - Plural & Singular - Núcleo de Inclusão, Comunicação e Media ",https://www.pluralesingular.pt/,ONGPD,,,,,,
626, Panóplia Heróis - Associação Nacional Cuidadores Informais ,https://ancuidadoresinformais.pt/,ONGPD,,,,,,
627," PCAND - Paralisia Cerebral, Associação Nacional de Desporto ",https://pcand.pt/,ONGPD,,,,,,
628, PERSONA - Associação para a Promoção da Saude Mental ,https://associacaopersona.wixsite.com/personaassociacao,ONGPD,,,,,,
629, Pony Club do Porto - Associação Solidária Friends Forever ,http://www.ponyclubdoporto.org/apoie-esta-causa,ONGPD,,,,,,
630," PT. AVC - União de Sobreviventes, Familiares e Amigos ",https://www.portugalavc.pt/,ONGPD,,,,,,
631," Quinta Essência - Associação QE, Uma Nova Linguagem para a Incapacidade ",https://www.quintaessencia.pt/,ONGPD,,,,,,
632, RARÍSSIMAS - Associação Nacional de Deficiências Mentais e Raras ,https://rarissimas.pt/,ONGPD,,,,,,
633, RECOMEÇO - Associação para a Reabilitação e Integração Social Amadora Sintra ,http://recomeco.pt/,ONGPD,,,,,,
634," ReCriar Caminhos - Associação de Apoio ao Desenvolvimento Vocacional, Forma - o e Inclusão de Pessoas com Esquizofrenia ",http://www.recriarcaminhos.pt/,ONGPD,,,,,,
635," RUMO, Cooperativa de Solidariedade Social, CRL ",http://rumo.org.pt/,ONGPD,,,,,,
636, SER IGUAL - Associação Serviços Especiais de Reabilitação e Igualdade ,https://seronline.pt/,ONGPD,,,,,,
637, SPEM - Sociedade Portuguesa de Esclerose Múltipla - Sede Nacional ,https://spem.pt/,ONGPD,,,,,,
638, SurdiSol - União de Apoio ao Surdo e Populações Especiais ,http://ufasv.blogspot.com/,ONGPD,,,,,,
639, TILIASCOOP - Formação & Reabilitação Psicossocial ,https://www.facebook.com/tiliascoop,ONGPD,,,,,,
640, UNICRISANO - União dos Centros de Recuperação Infantil do Distrito de Santarém ,http://www.unicrisano.pt/,ONGPD,,,,,,
641, UNIVERSAUTISTA - Associação para Jovens e Adultos ,https://www.universautista.pt/,ONGPD,,,,,,
642, VALORIZA - Associação de Desenvolvimento Local ,http://valoriza.pt/,ONGPD,,,,,,
643, VÁRIOS – Cooperativa de Solidariedade Social ,https://varios.pt/novosite/a-varios/apresentacao/,ONGPD,,,,,,
644, Vem Vencer - Associação de Apoio a Crianças Idosos e Pessoas com Deficiência ,https://www.vemvencer.pt/,ONGPD,,,,,,
645, Vencer Autismo - Associação Portuguesa para Vencer o Autismo ,https://vencerautismo.org/,ONGPD,,,,,,
